Station Name,Address  1,Address  2,City,State,Postal Code,No. of Ports,Pricing Policy,Usage Access,Category,Subcategory,Port 1: Connector Type,Voltage (V),Port 2: Connector Type,New Georeferenced Column,Pricing ,Power Select
COA FLEET - PIE / BARTON #2,505 Barton Springs Rd,,Austin,Texas,78704,2,$4.17/month PIE members $2/hr Non-Members,Commercial with restricted access,Municipal,Municipal Parking,J1772,240V,J1772,"30.256936, -97.749284",$4.17/month PIE members $2/hr Non-Members,40A
COA FLEET - PIE / ROOF 2,625 E 10th St,,Austin,Texas,78701,2,$4.17/month PIE members $2/hr Non-Members,Commercial with restricted access,Municipal,Municipal Fleet,NEMA 5-20R,240V,J1772,"30.2696, -97.73477",$4.17/month PIE members $2/hr Non-Members,40A
HPI 3700 / 3900 SC 4,3900 N Capital of Texas Hwy,,Austin,Texas,78746,2,$4.17/month PIE members $2/hr Non-Members,Commercial with unrestricted access,Workplace,General,J1772,240V,J1772,"30.337935, -97.808041",$4.17/month PIE members $2/hr Non-Members,40A
HPE AUSTIN / TXN04 A,14231 Tandem Blvd,,Austin,Texas,78728,2,$4.17/month PIE members $2/hr Non-Members,Commercial with unrestricted access,Workplace,High-Tech,J1772,240V,J1772,"30.445476, -97.690074",$4.17/month PIE members $2/hr Non-Members,40A
NATIONAL INSTRU / 5&6,11500 N Mopac Expy,,Austin,Texas,78759,2,$4.17/month PIE members $2/hr Non-Members,Commercial with unrestricted access,Workplace,High-Tech,J1772,240V,J1772,"30.408705, -97.725377",$4.17/month PIE members $2/hr Non-Members,40A
LADERA BEND / BUILDING 3,6585-6621 Jester Blvd,,Austin,Texas,78750,2,$4.17/month PIE members $2/hr Non-Members,Commercial with unrestricted access,Workplace,High-Tech,J1772,240V,J1772,"30.371215, -97.800887",$4.17/month PIE members $2/hr Non-Members,40A
CZPROPERTIES / FLOOR 2 UNIT 1,1400 Lavaca St,,Austin,Texas,78701,2,$4.17/month PIE members $2/hr Non-Members,Commercial with unrestricted access,Workplace,General,J1772,240V,J1772,"30.276924, -97.74264",$4.17/month PIE members $2/hr Non-Members,40A
COA FLEET - PIE / TOOMEY #2,1501-1615 Toomey Rd,,Austin,Texas,78704,2,$4.17/month PIE members $2/hr Non-Members,"Public (Municipal, as in library, street, etc)",Municipal,Municipal Fleet,NEMA 5-20R,240V,J1772,"30.263716, -97.759239",$4.17/month PIE members $2/hr Non-Members,40A
CATHERINE / CATHERINE 1,300 Barton Springs Rd,,Austin,Texas,78704,2,$4.17/month PIE members $2/hr Non-Members,Multi-family residential,Multifamily Commercial,Apartment,J1772,240V,J1772,"30.259096, -97.747775",$4.17/month PIE members $2/hr Non-Members,40A
PIE AE / HOWSONBRCHLIBR2,2500 Exposition blvd,,Austin,Texas,78703,2,$4.17/month PIE members $2/hr Non-Members,"Public (Municipal, as in library, street, etc)",Municipal,Library,J1772,240V,J1772,"30.298396, -97.767903",$4.17/month PIE members $2/hr Non-Members,40A
HYATT PLACE / HP STATION 3,Presidential Blvd,,Austin,Texas,78719,2,$4.17/month PIE members $2/hr Non-Members,Commercial with unrestricted access,Hospitality,Hotel / Resort,J1772,240V,J1772,"30.210387, -97.664586",$4.17/month PIE members $2/hr Non-Members,40A
PIE AE / HAMPTON LBRY1,5125 Convict Hill Rd,,Austin,Texas,78749,2,$4.17/month PIE members $2/hr Non-Members,Commercial with unrestricted access,Municipal,Library,J1772,240V,J1772,"30.218091, -97.855",$4.17/month PIE members $2/hr Non-Members,40A
FOUNDATION COMM / JORDAN3,2724 Philomena St,,Austin,Texas,78723,2,$4.17/month PIE members $2/hr Non-Members,Multi-family residential,Multifamily Commercial,Apartment,J1772,240V,J1772,"30.298681, -97.6948",$4.17/month PIE members $2/hr Non-Members,40A
COA / TWIN OAKS #1,1800 S 5th St,,Austin,Texas,78704,2,$4.17/month PIE members $2/hr Non-Members,Commercial with unrestricted access,Municipal,Library,J1772,240V,J1772,"30.248932, -97.762283",$4.17/month PIE members $2/hr Non-Members,40A
HPI 3700 / EV 2,3700 N Capital of Texas Hwy,,Austin,Texas,78746,1,$4.17/month PIE members $2/hr Non-Members,Commercial with unrestricted access,Workplace,General,J1772,--,--,"30.336797, -97.806151",$4.17/month PIE members $2/hr Non-Members,40A
AUSTIN / AUSTIN 200 2,200 W Cesar Chavez St,,Austin,Texas,78701,2,$4.17/month PIE members $2/hr Non-Members,Commercial with restricted access,Workplace,High-Tech,J1772,240V,J1772,"30.26445, -97.746142",$4.17/month PIE members $2/hr Non-Members,40A
PIE AE / PUBWYNDHAMGARD1,1600-1628 Woodward St,,Austin,Texas,78741,2,$4.17/month PIE members $2/hr Non-Members,Commercial with unrestricted access,Parking,Commercial,J1772,240V,J1772,"30.222774, -97.74635",$4.17/month PIE members $2/hr Non-Members,40A
FOUNDATION COMM / STATION 01,11015 four points dr,,Austin,Texas,78726,2,$4.17/month PIE members $2/hr Non-Members,Multi-family residential,Multifamily Commercial,Apartment,J1772,240V,J1772,"30.39921, -97.846895",$4.17/month PIE members $2/hr Non-Members,40A
COA FLEET - PIE / FLOOR 4,900 N Interstate Hwy 35,,Austin,Texas,78701,2,$4.17/month PIE members $2/hr Non-Members,Commercial with unrestricted access,Municipal,Municipal Fleet,J1772,240V,J1772,"30.269044, -97.73428",$4.17/month PIE members $2/hr Non-Members,40A
NATIONAL INSTRU / 17&18;,11500 N Mopac Expy,,Austin,Texas,78759,2,$4.17/month PIE members $2/hr Non-Members,Commercial with unrestricted access,Workplace,High-Tech,J1772,240V,J1772,"30.408534, -97.727744",$4.17/month PIE members $2/hr Non-Members,40A
SCHOOL / LANIER1,1201 Payton gin rd.,,Austin,Texas,78758,2,$4.17/month PIE members $2/hr Non-Members,"Public (Municipal, as in library, street, etc)",Education,High School / Other,J1772,240V,J1772,"30.360173, -97.709582",$4.17/month PIE members $2/hr Non-Members,40A
HANOVER / L7,110 San Antonio St,,Austin,Texas,78701,1,$4.17/month PIE members $2/hr Non-Members,Commercial with restricted access,Multifamily Commercial,Apartment,J1772,--,--,"30.265166, -97.749131",$4.17/month PIE members $2/hr Non-Members,40A
ENDEAVOR REG / DELLANA LN 1,2602 Dellana Ln,,Austin,Texas,78746,2,$4.17/month PIE members $2/hr Non-Members,Commercial with restricted access,Workplace,General,J1772,240V,J1772,"30.268309, -97.783776",$4.17/month PIE members $2/hr Non-Members,40A
CITY VIEW / STATION2,1120 S Capital of Texas Hwy,,Austin,Texas,78746,2,$4.17/month PIE members $2/hr Non-Members,Commercial with unrestricted access,Workplace,General,J1772,240V,J1772,"30.283044, -97.824902",$4.17/month PIE members $2/hr Non-Members,40A
AVIATION / 2ND FLOOR L,3201 Presidential Blvd,,Austin,Texas,78719,2,$4.17/month PIE members $2/hr Non-Members,Commercial with unrestricted access,Parking,Airport,J1772,240V,J1772,"30.20473, -97.669397",$4.17/month PIE members $2/hr Non-Members,40A
SALTILLO / BLOCK 2,1011 E 5th St,,Austin,Texas,78702,2,$4.17/month PIE members $2/hr Non-Members,Multi-family residential,Multifamily Commercial,Apartment,J1772,240V,J1772,"30.263955, -97.732721",$4.17/month PIE members $2/hr Non-Members,
RPP GARAGE / ISLAND 2,12301 Research Blvd,,Austin,Texas,78759,1,$4.17/month PIE members $2/hr Non-Members,Commercial with unrestricted access,Workplace,General,J1772,--,--,"30.427967, -97.754411",$4.17/month PIE members $2/hr Non-Members,40A
16 / OAKVILLE APTS,7011 W Parmer Ln,,Austin,Texas,78729,2,$4.17/month PIE members $2/hr Non-Members,Multi-family residential,Multifamily Commercial,Apartment,J1772,240V,J1772,"30.450758, -97.749282",$4.17/month PIE members $2/hr Non-Members,40A
HPI 3700 / 3900 SC #1,3900 N Capital of Texas Hwy,,Austin,Texas,78746,2,$4.17/month PIE members $2/hr Non-Members,Commercial with unrestricted access,Workplace,General,J1772,240V,J1772,"30.337898, -97.807867",$4.17/month PIE members $2/hr Non-Members,40A
AMD GO GREEN / P100 FL3 LEFT,7171 Southwest Pkwy,,Austin,Texas,78735,2,$4.17/month PIE members $2/hr Non-Members,Commercial with unrestricted access,Workplace,General,J1772,240V,J1772,"30.250807, -97.861696",$4.17/month PIE members $2/hr Non-Members,40A
PARMER AUSTIN / PIC #2,13011c McCallen Pass,,Austin,Texas,78753,2,$4.17/month PIE members $2/hr Non-Members,Commercial with unrestricted access,Workplace,High-Tech,J1772,240V,J1772,"30.409607, -97.659318",$4.17/month PIE members $2/hr Non-Members,40A
HPI 3700 / EV 4,3700 N Capital of Texas Hwy,,Austin,Texas,78746,1,$4.17/month PIE members $2/hr Non-Members,Commercial with unrestricted access,Workplace,General,J1772,--,--,"30.336723, -97.806259",$4.17/month PIE members $2/hr Non-Members,40A
ENDEAVOR REG / 901 E 6TH ST 4,901 E 6th St,,Austin,Texas,78702,2,$4.17/month PIE members $2/hr Non-Members,Commercial with restricted access,Workplace,General,J1772,240V,J1772,"30.265013, -97.733449",$4.17/month PIE members $2/hr Non-Members,40A
LADERA BEND / GATED GARAGE 2,7300 Ranch Rd 2222,,Austin,Texas,78730,2,$4.17/month PIE members $2/hr Non-Members,Commercial with unrestricted access,Workplace,High-Tech,J1772,240V,J1772,"30.372159, -97.80166",$4.17/month PIE members $2/hr Non-Members,40A
HANOVER / L5,110 San Antonio St,,Austin,Texas,78701,1,$4.17/month PIE members $2/hr Non-Members,Commercial with restricted access,Multifamily Commercial,Apartment,J1772,--,--,"30.265299, -97.749118",$4.17/month PIE members $2/hr Non-Members,40A
PARMER AUSTIN / STATION PIC 4,509 E Howard Ln,,Austin,Texas,78753,2,$4.17/month PIE members $2/hr Non-Members,Commercial with unrestricted access,Workplace,High-Tech,J1772,240V,J1772,"30.411955, -97.652813",$4.17/month PIE members $2/hr Non-Members,
PIE AE / PUB-CENTRALMKTS,4465-4475 S Lamar Blvd,,Austin,Texas,78745,2,$4.17/month PIE members $2/hr Non-Members,Commercial with unrestricted access,Parking,Commercial,J1772,240V,J1772,"30.232256, -97.798438",$4.17/month PIE members $2/hr Non-Members,40A
RAINEY STREET / MILLENNIUM 01,91 Rainey St,,Austin,Texas,78701,2,$4.17/month PIE members $2/hr Non-Members,Multi-family residential,Multifamily Commercial,Apartment,J1772,240V,J1772,"30.260803, -97.737765",$4.17/month PIE members $2/hr Non-Members,40A
PALOMA RIDGE / PALOMA BDG C #3,13620 N FM 620,,Austin,Texas,78717,2,$4.17/month PIE members $2/hr Non-Members,Commercial with unrestricted access,Workplace,General,J1772,240V,J1772,"30.477716, -97.779045",$4.17/month PIE members $2/hr Non-Members,40A
AVIATION / 5TH FLOOR,3201 Presidential Blvd,,Austin,Texas,78719,2,$4.17/month PIE members $2/hr Non-Members,"Public (Municipal, as in library, street, etc)",Parks and Recreation,,J1772,240V,J1772,"30.204665, -97.669632",$4.17/month PIE members $2/hr Non-Members,40A
PIE AE / PUBPEARSONH LN1,400 Center Ridge Dr,,Austin,Texas,78753,2,$4.17/month PIE members $2/hr Non-Members,Commercial with unrestricted access,Parking,Commercial,J1772,240V,J1772,"30.417411, -97.664204",$4.17/month PIE members $2/hr Non-Members,40A
AISD PAC / AISD PAC #1,Mueller Blvd,,Austin,Texas,78723,2,$4.17/month PIE members $2/hr Non-Members,Commercial with unrestricted access,Education,High School / Other,J1772,240V,J1772,"30.305454, -97.702666",$4.17/month PIE members $2/hr Non-Members,40A
PIE AE / RUTHERFORD #8,1520 Rutherford Ln,,Austin,Texas,78754,2,$4.17/month PIE members $2/hr Non-Members,"Public (Municipal, as in library, street, etc)",Municipal,Municipal Workplace,J1772,240V,J1772,"30.337751, -97.680756",$4.17/month PIE members $2/hr Non-Members,40A
ENDEAVOR REG / 901 E 6TH ST 2,901 E 6th St,,Austin,Texas,78702,2,$4.17/month PIE members $2/hr Non-Members,Commercial with restricted access,Workplace,General,J1772,240V,J1772,"30.265007, -97.733526",$4.17/month PIE members $2/hr Non-Members,40A
ENCINO STATIONS / ARM EMPLOYEES,5707 Southwest Pkwy,,Austin,Texas,78735,2,$4.17/month PIE members $2/hr Non-Members,Commercial with restricted access,Workplace,General,J1772,240V,J1772,"30.243704, -97.846168",$4.17/month PIE members $2/hr Non-Members,40A
PIE AE / MACC STATION 2,600 River St,,Austin,Texas,78701,2,$4.17/month PIE members $2/hr Non-Members,Commercial with unrestricted access,Municipal,Municipal Workplace,J1772,240V,J1772,"30.25848, -97.73948",$4.17/month PIE members $2/hr Non-Members,40A
PIE AE / RIO2 REMOVED SC,1212 Rio Grande St,,Austin,Texas,78701,2,$4.17/month PIE members $2/hr Non-Members,Commercial with unrestricted access,Parking,Commercial,NEMA 5-20R,240V,J1772,"30.277239, -97.747215",$4.17/month PIE members $2/hr Non-Members,40A
PIE AE / NWRECCENTER 1,2913 Marilyn Dr,,Austin,Texas,78757,2,$4.17/month PIE members $2/hr Non-Members,Commercial with unrestricted access,Parking,Commercial,J1772,240V,J1772,"30.33403, -97.751448",$4.17/month PIE members $2/hr Non-Members,40A
PIE AE / PUBACCSOAUSTIN1,5517 Manchaca Rd,,Austin,Texas,78745,2,$4.17/month PIE members $2/hr Non-Members,Commercial with unrestricted access,Parking,Commercial,J1772,240V,J1772,"30.216019, -97.796332",$4.17/month PIE members $2/hr Non-Members,30A
ST. JOHNS WEST / JOHNS E,601 W St Johns Ave,,Austin,Texas,78752,2,$4.17/month PIE members $2/hr Non-Members,Multi-family residential,Multifamily Commercial,Apartment,J1772,240V,J1772,"30.3378, -97.714764",$4.17/month PIE members $2/hr Non-Members,40A
REPUBLICSQUARE / GABLES REPUB2,217B W 4th St,,Austin,Texas,78701,2,$4.17/month PIE members $2/hr Non-Members,Multi-family residential,Multifamily Commercial,Apartment,J1772,240V,J1772,"30.26679, -97.74565",$4.17/month PIE members $2/hr Non-Members,40A
PIE AE / PUBCHASEESCAL1,4301 Westbank Dr,,Austin,Texas,78746,2,$4.17/month PIE members $2/hr Non-Members,Commercial with unrestricted access,Parking,Commercial,NEMA 5-20R,240V,J1772,"30.27567, -97.817127",$4.17/month PIE members $2/hr Non-Members,40A
CHAMPION OFFICE / EV #1,6433 Champion Grandview Way,,Austin,Texas,78750,2,$4.17/month PIE members $2/hr Non-Members,Commercial with restricted access,Parking,Commercial,J1772,240V,J1772,"30.363141, -97.793613",$4.17/month PIE members $2/hr Non-Members,40A
FLATIRON DOMAIN / FLATIRON DOM 1,10727 Domain Dr,,Austin,Texas,78758,2,$4.17/month PIE members $2/hr Non-Members,Multi-family residential,Multifamily Commercial,Apartment,J1772,240V,J1772,"30.393731, -97.725579",$4.17/month PIE members $2/hr Non-Members,30A
SCHOOL / TRAVIS2,1211 E Oltorf St.,,Austin,Texas,78704,2,$4.17/month PIE members $2/hr Non-Members,"Public (Municipal, as in library, street, etc)",Education,High School / Other,J1772,240V,J1772,"30.232206, -97.743837",$4.17/month PIE members $2/hr Non-Members,40A
PIE AE / PUBACCPINNACLE2,7748 Hwy 290 W,,Austin,Texas,78736,2,$4.17/month PIE members $2/hr Non-Members,Commercial with unrestricted access,Parking,Commercial,NEMA 5-20R,240V,J1772,"30.23143, -97.883171",$4.17/month PIE members $2/hr Non-Members,40A
AMBEROAKS-AE / AMBER 1,9001 Amberglen Blvd,,Austin,Texas,78729,2,$4.17/month PIE members $2/hr Non-Members,Multi-family residential,Multifamily Commercial,Apartment,J1772,240V,J1772,"30.470002, -97.766435",$4.17/month PIE members $2/hr Non-Members,40A
COA FLEET - PIE / MEINARD #2,4393-4799 Meinardus Dr,,Austin,Texas,78744,2,$4.17/month PIE members $2/hr Non-Members,"Public (Municipal, as in library, street, etc)",Municipal,Municipal Fleet,NEMA 5-20R,240V,J1772,"30.211357, -97.752083",$4.17/month PIE members $2/hr Non-Members,40A
FOUNDRY / STATION 4,310 Comal St,,Austin,Texas,78702,2,$4.17/month PIE members $2/hr Non-Members,Commercial with unrestricted access,Workplace,General,J1772,240V,J1772,"30.261084, -97.727822",$4.17/month PIE members $2/hr Non-Members,40A
PIE AE / CONVENTION CTR1,111 Congress Ave,,Austin,Texas,78701,2,$4.17/month PIE members $2/hr Non-Members,Commercial with unrestricted access,Parking,Commercial,J1772,240V,J1772,"30.263755, -97.743423",$4.17/month PIE members $2/hr Non-Members,40A
CEDARHILLS-AE / CEDARHILL 1,4100 W Slaughter Ln,,Austin,Texas,78749,2,$4.17/month PIE members $2/hr Non-Members,Multi-family residential,Multifamily Commercial,Apartment,J1772,240V,J1772,"30.189638, -97.856428",$4.17/month PIE members $2/hr Non-Members,40A
PIE AE / HOWSONBRCHLIBR1,2500 Exposition Blvd,,Austin,Texas,78703,2,$4.17/month PIE members $2/hr Non-Members,Commercial with unrestricted access,Municipal,Library,J1772,240V,J1772,"30.298412, -97.767959",$4.17/month PIE members $2/hr Non-Members,40A
YETI RAMBLERS / EVSE #1,7601 Southwest Pkwy,William Cannon,Austin,Texas,78735,2,$4.17/month PIE members $2/hr Non-Members,Commercial with unrestricted access,Multifamily Commercial,Apartment,J1772,240V,J1772,"30.256412, -97.871799",$4.17/month PIE members $2/hr Non-Members,40A
AXO GROUP LLC / AUSTIN CHARGE,601-699 Brushy St,,Austin,Texas,78702,2,$4.17/month PIE members $2/hr Non-Members,Commercial with unrestricted access,Workplace,General,J1772,240V,J1772,"30.266047, -97.733139",$4.17/month PIE members $2/hr Non-Members,40A
COA / DOA - CONRAC2,3819 Presidential Blvd,,Austin,Texas,78719,2,$4.17/month PIE members $2/hr Non-Members,Commercial with unrestricted access,Retail,Car Rental / Car Share,J1772,240V,J1772,"30.204655, -97.666451",$4.17/month PIE members $2/hr Non-Members,40A
B AUSTIN / STATION 1,6700 Manchaca Rd,,Austin,Texas,78745,2,$4.17/month PIE members $2/hr Non-Members,Multi-family residential,Multifamily Commercial,Apartment,J1772,240V,J1772,"30.206406, -97.807047",$4.17/month PIE members $2/hr Non-Members,40A
BRANDYWINE AUST / FOUR POINTS 1,11120 4 Points Dr,,Austin,Texas,78726,2,$4.17/month PIE members $2/hr Non-Members,Multi-family residential,Multifamily Commercial,Apartment,J1772,240V,J1772,"30.405365, -97.84813",$4.17/month PIE members $2/hr Non-Members,40A
PIE AE / CONVENTION CTR2,111 Congress Ave,,Austin,Texas,78701,2,$4.17/month PIE members $2/hr Non-Members,Commercial with unrestricted access,Parking,Commercial,J1772,240V,J1772,"30.263746, -97.743476",$4.17/month PIE members $2/hr Non-Members,40A
BUILDING 7 EVCS / STATION1,909 Reinli St,,Austin,Texas,78751,2,$4.17/month PIE members $2/hr Non-Members,Commercial with unrestricted access,Multifamily Commercial,Condominium,J1772,240V,J1772,"30.318426, -97.71069",$4.17/month PIE members $2/hr Non-Members,40A
7700 PARMER / 7700 PARMER 2,7700 W PARMER LN,,Austin,Texas,78729,2,$4.17/month PIE members $2/hr Non-Members,Commercial with unrestricted access,Workplace,High-Tech,J1772,240V,J1772,"30.458594, -97.7526",$4.17/month PIE members $2/hr Non-Members,40A
PIE AE / PUBACCHIGHLAND1,5930 Middle Fiskville Rd,,Austin,Texas,78752,2,$4.17/month PIE members $2/hr Non-Members,Commercial with unrestricted access,Parking,Commercial,J1772,240V,J1772,"30.322654, -97.712743",$4.17/month PIE members $2/hr Non-Members,40A
WHITLEY MAIN / PIE-M WHITLEY,301 Brazos St,,Austin,Texas,78701,2,$4.17/month PIE members $2/hr Non-Members,Commercial with unrestricted access,Multifamily Commercial,Condominium,J1772,240V,J1772,"30.265199, -97.742194",$4.17/month PIE members $2/hr Non-Members,40A
COA FLEET - PIE / FLOOR 4 ADA,625 E 10th St,,Austin,Texas,78701,2,$4.17/month PIE members $2/hr Non-Members,Commercial with unrestricted access,Municipal,Municipal Fleet,NEMA 5-20R,240V,J1772,"30.2696, -97.734679",$4.17/month PIE members $2/hr Non-Members,40A
COA / LOT J SW,10137 Hotel Dr,,Austin,Texas,78719,2,$4.17/month PIE members $2/hr Non-Members,"Public (Municipal, as in library, street, etc)",Workplace,General,J1772,240V,J1772,"30.207559, -97.661039",$4.17/month PIE members $2/hr Non-Members,40A
HPI 3700 / EV 6,4339 N Capital of Texas Hwy,,Austin,Texas,78746,1,$4.17/month PIE members $2/hr Non-Members,Commercial with unrestricted access,Workplace,General,J1772,--,--,"30.336616, -97.8076",$4.17/month PIE members $2/hr Non-Members,40A
PIE AE / MACC STATION 1,600 River St.,,Austin,Texas,78701,2,$4.17/month PIE members $2/hr Non-Members,Commercial with unrestricted access,Municipal,Municipal Workplace,J1772,240V,J1772,"30.258523, -97.739467",$4.17/month PIE members $2/hr Non-Members,40A
ACC-AE / RIO GRANDE GAR2,824 W 12th St,,Austin,Texas,78701,2,$4.17/month PIE members $2/hr Non-Members,Commercial with unrestricted access,Education,University / College,J1772,240V,J1772,"30.276423, -97.749389",$4.17/month PIE members $2/hr Non-Members,40A
ENCINO STATIONS / STATION 1,5707 Southwest Pkwy,,Austin,Texas,78735,2,$4.17/month PIE members $2/hr Non-Members,Commercial with unrestricted access,Workplace,General,J1772,240V,J1772,"30.243726, -97.845725",$4.17/month PIE members $2/hr Non-Members,40A
FOUNDATION COMM / JORDAN4,2724 Philomena St,,Austin,Texas,78723,2,$4.17/month PIE members $2/hr Non-Members,Multi-family residential,Multifamily Commercial,Apartment,J1772,240V,J1772,"30.298859, -97.694978",$4.17/month PIE members $2/hr Non-Members,40A
DEVLOPER / TRAMMELLCROW5,San Antonio St,2nd street,Austin,Texas,78701,2,$4.17/month PIE members $2/hr Non-Members,Commercial with unrestricted access,Workplace,General,J1772,240V,J1772,"30.265885, -97.748891",$4.17/month PIE members $2/hr Non-Members,40A
THE MEDVE GROUP / ARTS S AUSTIN,400 W St Elmo Rd,,Austin,Texas,78745,2,$4.17/month PIE members $2/hr Non-Members,Multi-family residential,Multifamily Commercial,Apartment,J1772,240V,J1772,"30.221064, -97.770408",$4.17/month PIE members $2/hr Non-Members,40A
TR DOMAIN 11 / STATION 1,11920 Alterra Pkwy,,Austin,Texas,78758,2,$4.17/month PIE members $2/hr Non-Members,Commercial with restricted access,Workplace,General,J1772,240V,J1772,"30.405714, -97.71939",$4.17/month PIE members $2/hr Non-Members,30A
PIE AE / CITY HALL STAT1,400 W 2nd St,,Austin,Texas,78701,2,$4.17/month PIE members $2/hr Non-Members,Commercial with unrestricted access,Parking,Commercial,J1772,240V,J1772,"30.264942, -97.746925",$4.17/month PIE members $2/hr Non-Members,40A
PIE AE / ERCOT 1,7620 Metro Center Dr,,Austin,Texas,78744,2,$4.17/month PIE members $2/hr Non-Members,Commercial with unrestricted access,Workplace,General,NEMA 5-20R,240V,J1772,"30.2165, -97.691795",$4.17/month PIE members $2/hr Non-Members,40A
PIE AE / PALMER STATION1,736-820 Barton Springs Rd,,Austin,Texas,78704,2,$4.17/month PIE members $2/hr Non-Members,Commercial with unrestricted access,Parking,Commercial,NEMA 5-20R,240V,J1772,"30.259287, -97.751956",$4.17/month PIE members $2/hr Non-Members,40A
HIDAUSTIN / STATION 1,611 Center Ridge Dr,,Austin,Texas,78753,2,$4.17/month PIE members $2/hr Non-Members,Commercial with unrestricted access,Workplace,General,J1772,240V,J1772,"30.414119, -97.667009",$4.17/month PIE members $2/hr Non-Members,40A
SAS / SAMSUNG 6,12100 samsung blvd,,Austin,Texas,78754,2,$4.17/month PIE members $2/hr Non-Members,Commercial with unrestricted access,Workplace,General,J1772,240V,J1772,"30.377439, -97.639693",$4.17/month PIE members $2/hr Non-Members,40A
AVIATION / 2ND FLOOR R,3201 Presidential Blvd,,Austin,Texas,78719,2,$4.17/month PIE members $2/hr Non-Members,Commercial with unrestricted access,Parking,Airport,J1772,240V,J1772,"30.204572, -97.669392",$4.17/month PIE members $2/hr Non-Members,30A
PIE AE / PUB ACC NRIDGE2,Campus Dr,,Austin,Texas,78758,2,$4.17/month PIE members $2/hr Non-Members,Commercial with unrestricted access,Parking,Commercial,J1772,240V,J1772,"30.40429, -97.705587",$4.17/month PIE members $2/hr Non-Members,40A
AMD GO GREEN / P300 FL2,6825 Rialto Blvd,,Austin,Texas,78735,2,$4.17/month PIE members $2/hr Non-Members,Commercial with restricted access,Workplace,High-Tech,J1772,240V,J1772,"30.249626, -97.860776",$4.17/month PIE members $2/hr Non-Members,40A
FROST / 2,401 Congress,,Austin,Texas,78701,2,$4.17/month PIE members $2/hr Non-Members,Commercial with restricted access,Parking,Commercial,J1772,240V,J1772,"30.267047, -97.742012",$4.17/month PIE members $2/hr Non-Members,40A
GIBSON FLATS / STATION 2,1219 S Lamar Blvd,,Austin,Texas,78704,2,$4.17/month PIE members $2/hr Non-Members,Commercial with unrestricted access,Multifamily Commercial,Apartment,J1772,240V,J1772,"30.254054, -97.761959",$4.17/month PIE members $2/hr Non-Members,40A
BURNET FLATS / BURNET FLATS G1,5453 Burnet Rd,,Austin,Texas,78756,2,$4.17/month PIE members $2/hr Non-Members,Multi-family residential,Multifamily Commercial,Apartment,J1772,240V,J1772,"30.330046, -97.739251",$4.17/month PIE members $2/hr Non-Members,40A
NATIONAL INSTRU / 19&20;,11500 N Mopac Expy,,Austin,Texas,78759,2,$4.17/month PIE members $2/hr Non-Members,Commercial with unrestricted access,Workplace,High-Tech,J1772,240V,J1772,"30.40854, -97.72767",$4.17/month PIE members $2/hr Non-Members,40A
PIE AE / PALMER STATION8,846-888 Barton Springs Rd,,Austin,Texas,78704,2,$4.17/month PIE members $2/hr Non-Members,Commercial with unrestricted access,Parking,Commercial,J1772,240V,J1772,"30.259864, -97.752661",$4.17/month PIE members $2/hr Non-Members,40A
PIE AE / PUBGABLES 5TH 2,1611 W 5th St,,Austin,Texas,78703,2,$4.17/month PIE members $2/hr Non-Members,Commercial with unrestricted access,Parking,Commercial,J1772,240V,J1772,"30.274388, -97.764731",$4.17/month PIE members $2/hr Non-Members,40A
GALLERIA OAKS / GALLERIA OAKS 1,3927 Ranch Rd 620 S,,Austin,Texas,78738,2,$4.17/month PIE members $2/hr Non-Members,Commercial with unrestricted access,Workplace,General,J1772,240V,J1772,"30.313121, -97.946493",$4.17/month PIE members $2/hr Non-Members,40A
MUELLER MARKET / MUELLER ST7,1801 E 51st St,,Austin,Texas,78723,1,$4.17/month PIE members $2/hr Non-Members,Commercial with unrestricted access,Workplace,General,J1772,--,--,"30.300934, -97.699428",$4.17/month PIE members $2/hr Non-Members,30A
COA FLEET - PIE / RUTHERFORD #9,1520 Rutherford Ln,,Austin,Texas,78754,2,$4.17/month PIE members $2/hr Non-Members,"Public (Municipal, as in library, street, etc)",Municipal,Municipal Fleet,NEMA 5-20R,240V,J1772,"30.335875, -97.679382",$4.17/month PIE members $2/hr Non-Members,40A
AUSTIN HQ / STATION 1,4200 Smith School Dr,,Austin,Texas,78744,2,$4.17/month PIE members $2/hr Non-Members,Commercial with unrestricted access,Workplace,General,J1772,240V,J1772,"30.192647, -97.714329",$4.17/month PIE members $2/hr Non-Members,40A
AISD PAC / AISD PAC #4,1301-1603 E 51st St,,Austin,Texas,78723,2,$4.17/month PIE members $2/hr Non-Members,Commercial with unrestricted access,Education,High School / Other,J1772,240V,J1772,"30.305269, -97.702269",$4.17/month PIE members $2/hr Non-Members,40A
MONOGRAM / PARKING 4-5,615 W 7th St,,Austin,Texas,78701,2,$4.17/month PIE members $2/hr Non-Members,Multi-family residential,Multifamily Commercial,Apartment,J1772,240V,J1772,"30.270567, -97.748906",$4.17/month PIE members $2/hr Non-Members,40A
ENDEAVOR REG / STATION2,11001 Lakeline Blvd,,Austin,Texas,78717,2,$4.17/month PIE members $2/hr Non-Members,Commercial with unrestricted access,Workplace,General,J1772,240V,J1772,"30.479702, -97.793993",$4.17/month PIE members $2/hr Non-Members,40A
1801 E 6TH / AUSTIN 1801 1,1805 E 6th St,,Austin,Texas,78702,2,$4.17/month PIE members $2/hr Non-Members,Commercial with restricted access,Parking,Commercial,J1772,240V,J1772,"30.261687, -97.723468",$4.17/month PIE members $2/hr Non-Members,40A
SLEEP INN / SLEEP INN 1,8410 E Hwy 290,,Austin,Texas,78754,2,$4.17/month PIE members $2/hr Non-Members,Commercial with unrestricted access,Hospitality,Hotel / Resort,J1772,240V,J1772,"30.329889, -97.661712",$4.17/month PIE members $2/hr Non-Members,40A
PALOMA RIDGE / PALOMA BDG C #5,13620 Ranch Rd 620 N,,Austin,Texas,78717,2,$4.17/month PIE members $2/hr Non-Members,Commercial with unrestricted access,Workplace,General,J1772,240V,J1772,"30.477983, -97.778114",$4.17/month PIE members $2/hr Non-Members,40A
PIE AE / PUB-STDAVIDSST2,710 Trinity St,,Austin,Texas,78701,2,$4.17/month PIE members $2/hr Non-Members,Commercial with unrestricted access,Municipal,Municipal Workplace,J1772,240V,J1772,"30.268895, -97.739056",$4.17/month PIE members $2/hr Non-Members,40A
FROST / 1,106 E 6th St,,Austin,Texas,78701,2,$4.17/month PIE members $2/hr Non-Members,Commercial with restricted access,Parking,Commercial,J1772,240V,J1772,"30.268028, -97.742388",$4.17/month PIE members $2/hr Non-Members,40A
NATIONAL INSTRU / 7&8,11500 N Mopac Expy,,Austin,Texas,78759,2,$4.17/month PIE members $2/hr Non-Members,Commercial with unrestricted access,Workplace,High-Tech,J1772,240V,J1772,"30.408505, -97.727699",$4.17/month PIE members $2/hr Non-Members,40A
HANOVER / LANTANA HILLS,6601Rialto Blvd,,Austin,Texas,78735,2,$4.17/month PIE members $2/hr Non-Members,Commercial with unrestricted access,Multifamily Commercial,Apartment,J1772,240V,J1772,"30.24912, -97.862418",$4.17/month PIE members $2/hr Non-Members,40A
FOUNDATION COMM / JORDAN1,2724 Philomena St,,Austin,Texas,78723,2,$4.17/month PIE members $2/hr Non-Members,Multi-family residential,Multifamily Commercial,Apartment,J1772,240V,J1772,"30.298721, -97.694754",$4.17/month PIE members $2/hr Non-Members,
PIE AE / HEB 6EA1,1000 E 41st St,,Austin,Texas,78751,2,$4.17/month PIE members $2/hr Non-Members,"Public (Municipal, as in library, street, etc)",Parking,Commercial,J1772,240V,J1772,"30.29923, -97.721107",$4.17/month PIE members $2/hr Non-Members,40A
LAMARHEIGHTS-AE / LAMAR 1,5400 N Lamar Blvd,,Austin,Texas,78751,2,$4.17/month PIE members $2/hr Non-Members,Multi-family residential,Multifamily Commercial,Apartment,J1772,240V,J1772,"30.322464, -97.7292",$4.17/month PIE members $2/hr Non-Members,40A
ENDEAVOR REG / VILL WESTLAKE 1,701 S Capital of Texas Hwy,,Austin,Texas,78746,2,$4.17/month PIE members $2/hr Non-Members,Commercial with unrestricted access,Parking,Commercial,J1772,240V,J1772,"30.291332, -97.826267",$4.17/month PIE members $2/hr Non-Members,40A
LCPM / GARAGE 1,3800 N. Lamar Blvd,,Austin,Texas,78756,1,$4.17/month PIE members $2/hr Non-Members,Commercial with unrestricted access,Workplace,General,J1772,--,--,"30.306188, -97.743433",$4.17/month PIE members $2/hr Non-Members,40A
3600WESTPARMER! / STATION1,3600 W Parmer Ln,,Austin,Texas,78727,2,$4.17/month PIE members $2/hr Non-Members,Commercial with unrestricted access,Retail,Shopping Center,J1772,240V,J1772,"30.424046, -97.710431",$4.17/month PIE members $2/hr Non-Members,30A
GARAGE 1 / GARAGE ONE,5010 S Congress Ave,,Austin,Texas,78745,2,$4.17/month PIE members $2/hr Non-Members,Multi-family residential,Multifamily Commercial,Apartment,J1772,240V,J1772,"30.211727, -97.772285",$4.17/month PIE members $2/hr Non-Members,40A
NATIONAL INSTRU / 13&14;,11500 N Mopac Expy,,Austin,Texas,78759,2,$4.17/month PIE members $2/hr Non-Members,Commercial with unrestricted access,Workplace,High-Tech,J1772,240V,J1772,"30.408775, -97.725228",$4.17/month PIE members $2/hr Non-Members,40A
AISD PAC / AISD PAC #3,1301-1603 E 51st St,,Austin,Texas,78723,2,$4.17/month PIE members $2/hr Non-Members,Commercial with unrestricted access,Education,High School / Other,J1772,240V,J1772,"30.305343, -97.702408",$4.17/month PIE members $2/hr Non-Members,40A
ENDEAVOR REG / LEVEL 2 - #3,4301 Bull Creek Rd,,Austin,Texas,78731,2,$4.17/month PIE members $2/hr Non-Members,Commercial with restricted access,Workplace,General,J1772,240V,J1772,"30.317724, -97.755038",$4.17/month PIE members $2/hr Non-Members,40A
WEINSTEIN / TECH RIDGE 1,1200 E Parmer Ln,,Austin,Texas,78753,1,$4.17/month PIE members $2/hr Non-Members,Multi-family residential,Multifamily Commercial,Apartment,J1772,--,--,"30.39479, -97.653249",$4.17/month PIE members $2/hr Non-Members,40A
HYATT PLACE / HP STATION 2,Presidential Blvd,,Austin,Texas,78719,2,$4.17/month PIE members $2/hr Non-Members,Commercial with unrestricted access,Hospitality,Hotel / Resort,J1772,240V,J1772,"30.21042, -97.664868",$4.17/month PIE members $2/hr Non-Members,40A
MUELLER MARKET / MUELLER 2,1801 E 51st St,,Austin,Texas,78723,1,$4.17/month PIE members $2/hr Non-Members,Commercial with unrestricted access,Retail,Shopping Center,J1772,--,--,"30.302981, -97.698722",$4.17/month PIE members $2/hr Non-Members,40A
PIE AE / PALMER STATION4,846888 Barton Springs Rd,,Austin,Texas,78704,2,$4.17/month PIE members $2/hr Non-Members,Commercial with unrestricted access,Parking,Commercial,J1772,240V,J1772,"30.259769, -97.752509",$4.17/month PIE members $2/hr Non-Members,40A
WETT / 2,1901 Capital Pkwy,,Austin,Texas,78746,2,$4.17/month PIE members $2/hr Non-Members,Commercial with restricted access,Workplace,High-Tech,J1772,240V,J1772,"30.259647, -97.797865",$4.17/month PIE members $2/hr Non-Members,40A
YETI RAMBLERS / EVSE #2,7601 Southwest Pkwy,,Austin,Texas,78735,2,$4.17/month PIE members $2/hr Non-Members,Commercial with unrestricted access,Multifamily Commercial,Apartment,J1772,240V,J1772,"30.255806, -97.872517",$4.17/month PIE members $2/hr Non-Members,40A
DEVLOPER / TRAMMELL CROW 4,500 W 2nd St,,Austin,Texas,78701,2,$4.17/month PIE members $2/hr Non-Members,Commercial with unrestricted access,Workplace,General,J1772,240V,J1772,"30.265914, -97.749008",$4.17/month PIE members $2/hr Non-Members,40A
ENDEAVOR REG / 2500 BEE CAVES1,2500 Bee Caves Rd.,,Austin,Texas,78746,2,$4.17/month PIE members $2/hr Non-Members,Commercial with restricted access,Workplace,General,J1772,240V,J1772,"30.267411, -97.783384",$4.17/month PIE members $2/hr Non-Members,40A
AMD GO GREEN / P100 FLOOR 5,7171 Southwest Pkwy,,Austin,Texas,78735,2,$4.17/month PIE members $2/hr Non-Members,Commercial with restricted access,Workplace,High-Tech,J1772,240V,J1772,"30.251499, -97.863984",$4.17/month PIE members $2/hr Non-Members,40A
ENDEAVOR REG / LEVEL 3 - #1,4301 Bull Creek Rd,,Austin,Texas,78731,2,$4.17/month PIE members $2/hr Non-Members,Commercial with restricted access,Workplace,General,J1772,240V,J1772,"30.317673, -97.75496",$4.17/month PIE members $2/hr Non-Members,40A
PIE AE / TRAVIS CO L2,316 W 8th St,,Austin,Texas,78701,1,$4.17/month PIE members $2/hr Non-Members,"Public (Municipal, as in library, street, etc)",Parking,Commercial,J1772,--,--,"30.270944, -97.744761",$4.17/month PIE members $2/hr Non-Members,40A
SALTILLO / BLOCK 4,1211 E 5th St,,Austin,Texas,78702,2,$4.17/month PIE members $2/hr Non-Members,Multi-family residential,Multifamily Commercial,Apartment,J1772,240V,J1772,"30.263204, -97.730621",$4.17/month PIE members $2/hr Non-Members,40A
PIE AE / PUBGABLES 5TH 1,1611 W 5th St,,Austin,Texas,78703,2,$4.17/month PIE members $2/hr Non-Members,Commercial with unrestricted access,Parking,Commercial,J1772,240V,J1772,"30.274209, -97.764758",$4.17/month PIE members $2/hr Non-Members,40A
HEB / HEB LAKEWAY #2,2000 Ranch Rd 620 S,,Lakeway,Texas,78734,2,$4.17/month PIE members $2/hr Non-Members,Commercial with unrestricted access,Retail,Big Box / Superstore,J1772,240V,J1772,"30.344254, -97.967587",$4.17/month PIE members $2/hr Non-Members,30A
HPI 3700 / EV 1,3700 N Capital of Texas Hwy,,Austin,Texas,78746,1,$4.17/month PIE members $2/hr Non-Members,Commercial with unrestricted access,Workplace,General,J1772,--,--,"30.33688, -97.806575",$4.17/month PIE members $2/hr Non-Members,40A
ENDEAVOR REG / 2500 BEE CAVES3,2500 Bee Caves Rd.,,Austin,Texas,78746,2,$4.17/month PIE members $2/hr Non-Members,Commercial with restricted access,Workplace,General,J1772,240V,J1772,"30.267392, -97.783453",$4.17/month PIE members $2/hr Non-Members,40A
REPUBLICSQUARE / GABLES REPUB3,213 W 4th St,,Austin,Texas,78701,2,$4.17/month PIE members $2/hr Non-Members,Multi-family residential,Multifamily Commercial,Apartment,J1772,240V,J1772,"30.266573, -97.74553",$4.17/month PIE members $2/hr Non-Members,40A
COLONIAL CTR HR / STATION 2,607 W 3rd St,,Austin,Texas,78703,2,$4.17/month PIE members $2/hr Non-Members,Commercial with unrestricted access,Workplace,General,J1772,240V,J1772,"30.26652, -97.750175",$4.17/month PIE members $2/hr Non-Members,40A
PIE AE / PUB ACC NRIDGE1,Campus Dr,,Austin,Texas,78758,2,$4.17/month PIE members $2/hr Non-Members,Commercial with unrestricted access,Parking,Commercial,J1772,240V,J1772,"30.404194, -97.705465",$4.17/month PIE members $2/hr Non-Members,40A
PRESIDIUM / LAUREL,8312 Fathom Cir,,Austin,Texas,78750,2,$4.17/month PIE members $2/hr Non-Members,Commercial with unrestricted access,Multifamily Commercial,Apartment,J1772,240V,J1772,"30.436594, -97.777617",$4.17/month PIE members $2/hr Non-Members,40A
PIE AE / ANIMAL SERVICE1,7201 Levander Loop,,Austin,Texas,78702,2,$4.17/month PIE members $2/hr Non-Members,Commercial with unrestricted access,Parking,Commercial,J1772,240V,J1772,"30.251369, -97.689082",$4.17/month PIE members $2/hr Non-Members,40A
LADERA BEND / BUILDING 1,7300 Ranch Rd 2222,,Austin,Texas,78750,2,$4.17/month PIE members $2/hr Non-Members,Commercial with unrestricted access,Workplace,High-Tech,J1772,240V,J1772,"30.373991, -97.802572",$4.17/month PIE members $2/hr Non-Members,40A
FOUNDRY / STATION 3,310 Comal St,,Austin,Texas,78702,2,$4.17/month PIE members $2/hr Non-Members,Commercial with unrestricted access,Workplace,General,J1772,240V,J1772,"30.261051, -97.72782",$4.17/month PIE members $2/hr Non-Members,40A
CZPROPERTIES / FLOOR 3 UNIT 2,1400 Lavaca St,,Austin,Texas,78701,2,$4.17/month PIE members $2/hr Non-Members,Commercial with unrestricted access,Workplace,General,J1772,240V,J1772,"30.276966, -97.742726",$4.17/month PIE members $2/hr Non-Members,40A
PARK&ZOOM / VALET #3,9518 Hotel Dr,,Austin,Texas,78719,2,$4.17/month PIE members $2/hr Non-Members,Commercial with unrestricted access,Parking,Airport,J1772,240V,J1772,"30.211718, -97.662318",$4.17/month PIE members $2/hr Non-Members,40A
ENDEAVOR REG / LEVEL 3 - #2,4301 Bull Creek Rd,,Austin,Texas,78731,2,$4.17/month PIE members $2/hr Non-Members,Commercial with restricted access,Workplace,General,J1772,240V,J1772,"30.317707, -97.754977",$4.17/month PIE members $2/hr Non-Members,40A
COA FLEET - PIE / ED BLUE #3,4101 Ed Bluestein Blvd,,Austin,Texas,78721,2,$4.17/month PIE members $2/hr Non-Members,Commercial with restricted access,Municipal,Municipal Fleet,J1772,240V,J1772,"30.277002, -97.667036",$4.17/month PIE members $2/hr Non-Members,40A
WEINSTEIN / ANDERSON 1,8601 Anderson Mill Rd,,Austin,Texas,78729,2,$4.17/month PIE members $2/hr Non-Members,Commercial with unrestricted access,Multifamily Commercial,Apartment,J1772,240V,J1772,"30.455107, -97.768221",$4.17/month PIE members $2/hr Non-Members,40A
NATIONAL INSTRU / 9&10;,11500 N Mopac Expy,,Austin,Texas,78759,2,$4.17/month PIE members $2/hr Non-Members,Commercial with unrestricted access,Workplace,High-Tech,J1772,240V,J1772,"30.408686, -97.725307",$4.17/month PIE members $2/hr Non-Members,40A
COLONIAL CTR HR / STATION 1,607 W 3rd St,,Austin,Texas,78703,2,$4.17/month PIE members $2/hr Non-Members,Commercial with unrestricted access,Workplace,General,J1772,240V,J1772,"30.266521, -97.75022",$4.17/month PIE members $2/hr Non-Members,40A
PALOMA RIDGE / PALOMA1B,13620 Ranch Rd 620 N,,Austin,Texas,78717,2,$4.17/month PIE members $2/hr Non-Members,Commercial with unrestricted access,Workplace,General,J1772,240V,J1772,"30.477229, -97.777396",$4.17/month PIE members $2/hr Non-Members,40A
HEB / HEB LAKEWAY #1,2000 Ranch Rd 620 S,,Lakeway,Texas,78734,1,$4.17/month PIE members $2/hr Non-Members,Commercial with unrestricted access,Retail,Big Box / Superstore,J1772,--,--,"30.344323, -97.967673",$4.17/month PIE members $2/hr Non-Members,40A
ENCINO STATIONS / STATION 3,5707 Southwest Pkwy,,Austin,Texas,78735,1,$4.17/month PIE members $2/hr Non-Members,Commercial with unrestricted access,Workplace,General,J1772,--,--,"30.243737, -97.84575",$4.17/month PIE members $2/hr Non-Members,40A
PIE AE / PUBACCSVSCTRST1,9101 Tuscany Way,,Austin,Texas,78754,2,$4.17/month PIE members $2/hr Non-Members,Commercial with unrestricted access,Workplace,General,J1772,240V,J1772,"30.344088, -97.665823",$4.17/month PIE members $2/hr Non-Members,40A
ENDEAVOR REG / LEVEL 2 - #2,4301 Bull Creek Rd,,Austin,Texas,78731,2,$4.17/month PIE members $2/hr Non-Members,Commercial with restricted access,Workplace,General,J1772,240V,J1772,"30.317689, -97.755015",$4.17/month PIE members $2/hr Non-Members,40A
AUSTIN / 400 - 1,400 W Cesar Chavez St,,Austin,Texas,78701,2,$4.17/month PIE members $2/hr Non-Members,Commercial with restricted access,Workplace,High-Tech,J1772,240V,J1772,"30.265028, -97.748448",$4.17/month PIE members $2/hr Non-Members,40A
PIE AE / PUBACCHIGHLAND2,5930 Middle Fiskville Rd,,Austin,Texas,78752,2,$4.17/month PIE members $2/hr Non-Members,Commercial with unrestricted access,Parking,Commercial,J1772,240V,J1772,"30.322727, -97.712799",$4.17/month PIE members $2/hr Non-Members,40A
HPI 3700 / EV 3,3700 N Capital of Texas Hwy,,Austin,Texas,78746,1,$4.17/month PIE members $2/hr Non-Members,Commercial with unrestricted access,Workplace,General,J1772,--,--,"30.336765, -97.806189",$4.17/month PIE members $2/hr Non-Members,40A
WETT / 1,1901 Capital Pkwy,,Austin,Texas,78746,2,$4.17/month PIE members $2/hr Non-Members,Commercial with restricted access,Workplace,High-Tech,J1772,240V,J1772,"30.259634, -97.79807",$4.17/month PIE members $2/hr Non-Members,40A
1224 E 12 / PAD STATION 1,1224 E 12th St,,Austin,Texas,78702,2,$4.17/month PIE members $2/hr Non-Members,Commercial with unrestricted access,Workplace,General,J1772,240V,J1772,"30.272869, -97.726713",$4.17/month PIE members $2/hr Non-Members,40A
PIE AE / MILWOOD LIB 2,12500 Amherst Dr,,Austin,Texas,78727,2,$4.17/month PIE members $2/hr Non-Members,Commercial with unrestricted access,Parking,Commercial,J1772,240V,J1772,"30.422284, -97.71646",$4.17/month PIE members $2/hr Non-Members,40A
PIE AE / PUBDITTMAR2,1009 W Dittmar Rd,,Austin,Texas,78745,2,$4.17/month PIE members $2/hr Non-Members,"Public (Municipal, as in library, street, etc)",Parks and Recreation,,J1772,240V,J1772,"30.185301, -97.80118",$4.17/month PIE members $2/hr Non-Members,40A
300W / 300 W 6TH,300 W 6th,,Austin,Texas,78701,2,$4.17/month PIE members $2/hr Non-Members,Commercial with restricted access,Parking,Commercial,J1772,240V,J1772,"30.271337, -97.746036",$4.17/month PIE members $2/hr Non-Members,40A
ACC-AE / RIO GRANDE GAR1,824 W 12th St,,Austin,Texas,78701,2,$4.17/month PIE members $2/hr Non-Members,Commercial with unrestricted access,Education,University / College,J1772,240V,J1772,"30.276433, -97.749429",$4.17/month PIE members $2/hr Non-Members,
RPP GARAGE / GARAGE 2,12455 Research Park Loop,,Austin,Texas,78727,2,$4.17/month PIE members $2/hr Non-Members,Commercial with unrestricted access,Workplace,General,J1772,240V,J1772,"30.429442, -97.755212",$4.17/month PIE members $2/hr Non-Members,40A
PENNYBACKER / AQUILA BRDG PT1,6504 Bridge Point Pkwy,,Austin,Texas,78730,2,$4.17/month PIE members $2/hr Non-Members,Commercial with unrestricted access,Workplace,High-Tech,J1772,240V,J1772,"30.355378, -97.802874",$4.17/month PIE members $2/hr Non-Members,40A
COA FLEET - PIE / ED BLUE #1,4101 Ed Bluestein Blvd,,Austin,Texas,78721,2,$4.17/month PIE members $2/hr Non-Members,Commercial with restricted access,Municipal,Municipal Fleet,J1772,240V,J1772,"30.277058, -97.666953",$4.17/month PIE members $2/hr Non-Members,40A
INT-BIO EV CHGR / INTBIO EV CHGR2,8206 Cross Park Dr,,Austin,Texas,78754,2,$4.17/month PIE members $2/hr Non-Members,Commercial with unrestricted access,Workplace,High-Tech,J1772,240V,J1772,"30.330901, -97.668947",$4.17/month PIE members $2/hr Non-Members,40A
COA / NEWCENTRALLIB4,710 W Cesar Chavez St,,Austin,Texas,78701,2,$4.17/month PIE members $2/hr Non-Members,"Public (Municipal, as in library, street, etc)",Municipal,Library,J1772,240V,J1772,"30.266132, -97.751803",$4.17/month PIE members $2/hr Non-Members,40A
PIE AE / PUBACCPINNACLE1,7748 Hwy 290 W,,Austin,Texas,78736,2,$4.17/month PIE members $2/hr Non-Members,Commercial with unrestricted access,Parking,Commercial,NEMA 5-20R,240V,J1772,"30.231403, -97.883194",$4.17/month PIE members $2/hr Non-Members,40A
CZPROPERTIES / FLOOR 2 UNIT 2,1400 Lavaca St,,Austin,Texas,78701,2,$4.17/month PIE members $2/hr Non-Members,Commercial with unrestricted access,Workplace,General,J1772,240V,J1772,"30.277056, -97.742637",$4.17/month PIE members $2/hr Non-Members,40A
PIE AE / PUB UTANTONIO 1,2420 San Antonio St,,Austin,Texas,78705,2,$4.17/month PIE members $2/hr Non-Members,"Public (Municipal, as in library, street, etc)",Parking,Commercial,J1772,240V,J1772,"30.288683, -97.742575",$4.17/month PIE members $2/hr Non-Members,40A
DSMCUT / EVSE05 FLOOR L3,501-573 E 15th St,,Austin,Texas,78701,2,$4.17/month PIE members $2/hr Non-Members,Commercial with unrestricted access,Healthcare,Hospital / Treatment Center,J1772,240V,J1772,"30.275245, -97.734566",$4.17/month PIE members $2/hr Non-Members,40A
DSMCUT / EVSE07 FLOOR L1,501-573 E 15th St,,Austin,Texas,78701,2,$4.17/month PIE members $2/hr Non-Members,Commercial with unrestricted access,Healthcare,Hospital / Treatment Center,J1772,240V,J1772,"30.275236, -97.734569",$4.17/month PIE members $2/hr Non-Members,40A
PIE AE / RUTHERFORDCAMP2,8301 Cameron Rd,,Austin,Texas,78754,2,$4.17/month PIE members $2/hr Non-Members,Commercial with unrestricted access,Parking,Commercial,J1772,240V,J1772,"30.337168, -97.680607",$4.17/month PIE members $2/hr Non-Members,40A
ENDEAVOR REG / 901 E 6TH ST 5,901 E 6th St,,Austin,Texas,78702,2,$4.17/month PIE members $2/hr Non-Members,Commercial with restricted access,Workplace,General,J1772,240V,J1772,"30.265144, -97.733277",$4.17/month PIE members $2/hr Non-Members,40A
PIE AE / ROSEWOOD PARK2,Rosewood Neighborhood Park Pedestrian Walkway,,Austin,Texas,78702,2,$4.17/month PIE members $2/hr Non-Members,Commercial with unrestricted access,Parking,Commercial,J1772,240V,J1772,"30.271778, -97.713958",$4.17/month PIE members $2/hr Non-Members,40A
PALOMA RIDGE / PALOMA BDG C #1,13620 N FM 620,,Austin,Texas,78717,2,$4.17/month PIE members $2/hr Non-Members,Commercial with unrestricted access,Workplace,General,J1772,240V,J1772,"30.47781, -97.77879",$4.17/month PIE members $2/hr Non-Members,40A
PIE AE / RUTHERFORDCAMP1,8301 Cameron Rd,,Austin,Texas,78754,2,$4.17/month PIE members $2/hr Non-Members,Commercial with unrestricted access,Parking,Commercial,J1772,240V,J1772,"30.337138, -97.680658",$4.17/month PIE members $2/hr Non-Members,40A
PARKING LEVEL 1 / KENZIE 2,11301 Domain Dr,,Austin,Texas,78758,2,$4.17/month PIE members $2/hr Non-Members,Multi-family residential,Multifamily Commercial,Apartment,J1772,240V,J1772,"30.399504, -97.723519",$4.17/month PIE members $2/hr Non-Members,40A
PIE AE / OTC 3FL PKGSTA3,505 Barton Springs Rd,,Austin,Texas,78704,2,$4.17/month PIE members $2/hr Non-Members,Commercial with unrestricted access,Parking,Commercial,J1772,240V,J1772,"30.256917, -97.749169",$4.17/month PIE members $2/hr Non-Members,40A
PIE AE / PUBLOSTPARROTS1,15116 Storm Dr,,Austin,Texas,78734,2,$4.17/month PIE members $2/hr Non-Members,Commercial with unrestricted access,Parking,Commercial,NEMA 5-20R,240V,J1772,"30.382643, -97.933861",$4.17/month PIE members $2/hr Non-Members,40A
ENDEAVOR REG / VILL WESTLAKE 2,701 S Capital of Texas Hwy,,Austin,Texas,78746,2,$4.17/month PIE members $2/hr Non-Members,Commercial with unrestricted access,Parking,Commercial,J1772,240V,J1772,"30.291349, -97.826317",$4.17/month PIE members $2/hr Non-Members,40A
COA / NEWCENTRALLIB1,710 W Cesar Chavez St,,Austin,Texas,78701,2,$4.17/month PIE members $2/hr Non-Members,"Public (Municipal, as in library, street, etc)",Municipal,Library,J1772,240V,J1772,"30.266102, -97.751667",$4.17/month PIE members $2/hr Non-Members,40A
SAS / SAMSUNG 3,12100 samsung blvd,,Austin,Texas,78754,2,$4.17/month PIE members $2/hr Non-Members,Commercial with unrestricted access,Workplace,General,J1772,240V,J1772,"30.377424, -97.639722",$4.17/month PIE members $2/hr Non-Members,40A
SCHOOL / AKINS1,10701 S 1st St.,,Austin,Texas,78748,2,$4.17/month PIE members $2/hr Non-Members,"Public (Municipal, as in library, street, etc)",Education,High School / Other,J1772,240V,J1772,"30.147634, -97.801294",$4.17/month PIE members $2/hr Non-Members,40A
PIE AE / CITY HALL STAT2,400 W 2nd St,,Austin,Texas,78701,2,$4.17/month PIE members $2/hr Non-Members,Commercial with unrestricted access,Parking,Commercial,J1772,240V,J1772,"30.264945, -97.747",$4.17/month PIE members $2/hr Non-Members,40A
PARK PLAZA / STATION2,115 Sandra muraida way,,Austin,Texas,78703,2,$4.17/month PIE members $2/hr Non-Members,Commercial with unrestricted access,Multifamily Commercial,Apartment,J1772,240V,J1772,"30.267321, -97.754548",$4.17/month PIE members $2/hr Non-Members,40A
HPI 3700 / EV 5,4339 N Capital of Texas Hwy,,Austin,Texas,78746,1,$4.17/month PIE members $2/hr Non-Members,Commercial with unrestricted access,Workplace,General,J1772,--,--,"30.336623, -97.807619",$4.17/month PIE members $2/hr Non-Members,40A
GAINESRANCH / GAINES 1,4424 Gaines Ranch Loop,,Austin,Texas,78735,2,$4.17/month PIE members $2/hr Non-Members,Multi-family residential,Multifamily Commercial,Apartment,J1772,240V,J1772,"30.244044, -97.818364",$4.17/month PIE members $2/hr Non-Members,40A
PARK&ZOOM / VALET #5,9518 Hotel Dr,,Austin,Texas,78719,2,$4.17/month PIE members $2/hr Non-Members,Commercial with unrestricted access,Parking,Airport,J1772,240V,J1772,"30.211668, -97.661771",$4.17/month PIE members $2/hr Non-Members,40A
PIE AE / PUBHILL.CGAL1,12901 Hill Country Blvd,,Bee Cave,Texas,78738,2,$4.17/month PIE members $2/hr Non-Members,Commercial with unrestricted access,Workplace,General,J1772,240V,J1772,"30.309283, -97.94238",$4.17/month PIE members $2/hr Non-Members,40A
PIE AE / PUB DELL3,1345 Philomena St,,Austin,Texas,78723,2,$4.17/month PIE members $2/hr Non-Members,Commercial with unrestricted access,Parking,Commercial,J1772,240V,J1772,"30.302489, -97.706912",$4.17/month PIE members $2/hr Non-Members,40A
ROSCOE PROPERTI / TIMBERCREEK 1,614 S 1st St,,Austin,Texas,78704,2,$4.17/month PIE members $2/hr Non-Members,Multi-family residential,Multifamily Commercial,Apartment,J1772,240V,J1772,"30.256475, -97.751759",$4.17/month PIE members $2/hr Non-Members,40A
ACC-AE / NORTHRIDGE2,11928 Stonehollow,,Austin,Texas,78758,2,$4.17/month PIE members $2/hr Non-Members,Commercial with unrestricted access,Parking,Commercial,J1772,240V,J1772,"30.404151, -97.705712",$4.17/month PIE members $2/hr Non-Members,40A
PIE AE / ANIMAL SERVICE2,7201 Levander Loop,,Austin,Texas,78702,2,$4.17/month PIE members $2/hr Non-Members,Commercial with unrestricted access,Parking,Commercial,J1772,240V,J1772,"30.251357, -97.689015",$4.17/month PIE members $2/hr Non-Members,40A
AUSTIN / AUSTIN 200 1,200 W Cesar Chavez St,,Austin,Texas,78701,2,$4.17/month PIE members $2/hr Non-Members,Commercial with restricted access,Workplace,High-Tech,J1772,240V,J1772,"30.264423, -97.746071",$4.17/month PIE members $2/hr Non-Members,40A
HABITAT SUITES / SINGLE PORT,500 E Highland Mall Blvd,,Austin,Texas,78752,1,$4.17/month PIE members $2/hr Non-Members,Commercial with unrestricted access,Workplace,General,J1772,--,--,"30.329076, -97.709553",$4.17/month PIE members $2/hr Non-Members,40A
PIE AE / PUB UTPICKLE1,Rd A,,Austin,Texas,78758,2,$4.17/month PIE members $2/hr Non-Members,Commercial with unrestricted access,Workplace,General,J1772,240V,J1772,"30.389653, -97.725036",$4.17/month PIE members $2/hr Non-Members,40A
ROSCOE PROPERTI / VOLUME MAIN,1715 E 32nd St,,Austin,Texas,78722,2,$4.17/month PIE members $2/hr Non-Members,Multi-family residential,Multifamily Commercial,Apartment,J1772,240V,J1772,"30.28544, -97.715107",$4.17/month PIE members $2/hr Non-Members,40A
AVIATION / 1ST FLOOR GARAG,3201 Presidential Blvd,,Austin,Texas,78719,2,$4.17/month PIE members $2/hr Non-Members,Commercial with unrestricted access,Parking,Airport,J1772,240V,J1772,"30.204582, -97.669275",$4.17/month PIE members $2/hr Non-Members,30A
MIRA VISTA / STATION 1,2705 Bee Cave Rd,,Austin,Texas,78746,2,$4.17/month PIE members $2/hr Non-Members,Commercial with unrestricted access,Workplace,General,J1772,240V,J1772,"30.269525, -97.786972",$4.17/month PIE members $2/hr Non-Members,40A
PIE AE / PALMER STATION7,846-888 Barton Springs Rd,,Austin,Texas,78704,2,$4.17/month PIE members $2/hr Non-Members,"Public (Municipal, as in library, street, etc)",Parking,Commercial,J1772,240V,J1772,"30.259966, -97.752658",$4.17/month PIE members $2/hr Non-Members,40A
PARK&ZOOM / VALET #4,9518 Hotel Dr,,Austin,Texas,78719,2,$4.17/month PIE members $2/hr Non-Members,Commercial with unrestricted access,Parking,Airport,J1772,240V,J1772,"30.21145, -97.662103",$4.17/month PIE members $2/hr Non-Members,40A
AMD GO GREEN / P100 FL4 INNER,7171 Southwest Pkwy,,Austin,Texas,78735,2,$4.17/month PIE members $2/hr Non-Members,Commercial with unrestricted access,Workplace,High-Tech,J1772,240V,J1772,"30.251073, -97.863136",$4.17/month PIE members $2/hr Non-Members,40A
1801 E 6TH / AUSTIN 1801 2,1805 E 6th St,,Austin,Texas,78702,2,$4.17/month PIE members $2/hr Non-Members,Commercial with restricted access,Parking,Commercial,J1772,240V,J1772,"30.261673, -97.723468",$4.17/month PIE members $2/hr Non-Members,40A
STATION 1 / PLAZA 1,5001 Plaza on the Lake,,Austin,Texas,78746,2,$4.17/month PIE members $2/hr Non-Members,Commercial with unrestricted access,Workplace,General,J1772,240V,J1772,"30.347873, -97.800826",$4.17/month PIE members $2/hr Non-Members,40A
PIE AE / PALMER STATION3,736-820 Barton Springs Rd,,Austin,Texas,78704,2,$4.17/month PIE members $2/hr Non-Members,Commercial with unrestricted access,Parking,Commercial,J1772,240V,J1772,"30.259236, -97.751809",$4.17/month PIE members $2/hr Non-Members,40A
COA FLEET - PIE / RUTHERFORD #6,1520 Rutherford Ln,,Austin,Texas,78754,2,$4.17/month PIE members $2/hr Non-Members,"Public (Municipal, as in library, street, etc)",Municipal,Municipal Fleet,NEMA 5-20R,240V,J1772,"30.335842, -97.679443",$4.17/month PIE members $2/hr Non-Members,40A
CZPROPERTIES / FLOOR 3 UNIT 1,1400 Lavaca St,,Austin,Texas,78701,2,$4.17/month PIE members $2/hr Non-Members,Commercial with unrestricted access,Workplace,General,J1772,240V,J1772,"30.277158, -97.743015",$4.17/month PIE members $2/hr Non-Members,
AMD GO GREEN / P100 FL3 RIGHT,7171 Southwest Pkwy,,Austin,Texas,78735,2,$4.17/month PIE members $2/hr Non-Members,Commercial with unrestricted access,Workplace,General,J1772,240V,J1772,"30.250807, -97.861717",$4.17/month PIE members $2/hr Non-Members,40A
PARK&ZOOM / VALET #2,2601 Cardinal Loop,,Austin,Texas,78617,2,$4.17/month PIE members $2/hr Non-Members,Commercial with unrestricted access,Parking,Airport,J1772,240V,J1772,"30.213452, -97.657691",$4.17/month PIE members $2/hr Non-Members,40A
PALOMA RIDGE / PALOMA BDG C #4,13620 Ranch Rd 620 N,,Austin,Texas,78717,2,$4.17/month PIE members $2/hr Non-Members,Commercial with unrestricted access,Workplace,General,J1772,240V,J1772,"30.477999, -97.77797",$4.17/month PIE members $2/hr Non-Members,40A
YETI RAMBLERS / EVSE4,7601 Southwest Pkwy,,Austin,Texas,78735,2,$4.17/month PIE members $2/hr Non-Members,Commercial with unrestricted access,Multifamily Commercial,Apartment,J1772,240V,J1772,"30.255936, -97.872345",$4.17/month PIE members $2/hr Non-Members,30A
PALOMA RIDGE / PALOMA BDG C #8,13620 N FM 620,,Austin,Texas,78717,2,$4.17/month PIE members $2/hr Non-Members,Commercial with unrestricted access,Workplace,General,J1772,240V,J1772,"30.47798, -97.77821",$4.17/month PIE members $2/hr Non-Members,40A
HPE AUSTIN / TXN04 B,14231 Tandem Blvd,,Austin,Texas,78728,2,$4.17/month PIE members $2/hr Non-Members,Commercial with unrestricted access,Workplace,High-Tech,J1772,240V,J1772,"30.445485, -97.690128",$4.17/month PIE members $2/hr Non-Members,40A
COA FLEET - PIE / SPRING #2,800-816 Springdale Rd,,Austin,Texas,78702,2,$4.17/month PIE members $2/hr Non-Members,"Public (Municipal, as in library, street, etc)",Municipal,Municipal Fleet,NEMA 5-20R,240V,J1772,"30.259312, -97.699577",$4.17/month PIE members $2/hr Non-Members,40A
AVIATION / 1ST FLOOR R,3201 Presidential Blvd,,Austin,Texas,78719,2,$4.17/month PIE members $2/hr Non-Members,Commercial with unrestricted access,Parking,Airport,J1772,240V,J1772,"30.204594, -97.669188",$4.17/month PIE members $2/hr Non-Members,40A
CZPROPERTIES / FLOOR 3 UNIT 3,1400 Lavaca St,,Austin,Texas,78701,2,$4.17/month PIE members $2/hr Non-Members,Commercial with unrestricted access,Workplace,General,J1772,240V,J1772,"30.277017, -97.742705",$4.17/month PIE members $2/hr Non-Members,40A
SAS / STATION 2,12100 samsung blvd,,Austin,Texas,78754,2,$4.17/month PIE members $2/hr Non-Members,Commercial with unrestricted access,Workplace,General,J1772,240V,J1772,"30.377879, -97.639587",$4.17/month PIE members $2/hr Non-Members,40A
HIDAUSTIN / STATION 02,611 Center Ridge Dr,,Austin,Texas,78753,2,$4.17/month PIE members $2/hr Non-Members,Commercial with unrestricted access,Workplace,General,J1772,240V,J1772,"30.414361, -97.666176",$4.17/month PIE members $2/hr Non-Members,40A
WEINSTEIN / BEXLEY 1,2801 S Lakeline Blvd,,Cedar Park,Texas,78613,2,$4.17/month PIE members $2/hr Non-Members,Commercial with unrestricted access,Workplace,General,J1772,240V,J1772,"30.473632, -97.809632",$4.17/month PIE members $2/hr Non-Members,
AVIATION / 3RD FLOOR,3201 Presidential Blvd,,Austin,Texas,78719,2,$4.17/month PIE members $2/hr Non-Members,"Public (Municipal, as in library, street, etc)",Municipal,Parks and Recreation (Public),J1772,240V,J1772,"30.21292, -97.66631",$4.17/month PIE members $2/hr Non-Members,40A
PIE AE / PUB UTPICKLE2,Rd A,,Austin,Texas,78758,2,$4.17/month PIE members $2/hr Non-Members,Commercial with unrestricted access,Education,University / College,J1772,240V,J1772,"30.389602, -97.725084",$4.17/month PIE members $2/hr Non-Members,40A
SCHOOL / TRAVIS1,2430 S IH 35 Frontage Rd,,Austin,Texas,78704,2,$4.17/month PIE members $2/hr Non-Members,"Public (Municipal, as in library, street, etc)",Education,High School / Other,J1772,240V,J1772,"30.232148, -97.743892",$4.17/month PIE members $2/hr Non-Members,40A
BRANDYWINE AUST / FOUR POINTS 2,11120 4 Points Dr,,Austin,Texas,78726,2,$4.17/month PIE members $2/hr Non-Members,Multi-family residential,Multifamily Commercial,Apartment,J1772,240V,J1772,"30.405365, -97.848098",$4.17/month PIE members $2/hr Non-Members,40A
LADERA BEND / GATED GARAGE GW,7300 Ranch Rd 2222,,Austin,Texas,78730,2,$4.17/month PIE members $2/hr Non-Members,Commercial with unrestricted access,Workplace,High-Tech,J1772,240V,J1772,"30.372427, -97.801834",$4.17/month PIE members $2/hr Non-Members,40A
PIE AE / PUB CAMP MABRY1,Camp Mabry 1 Mile Track,,Austin,Texas,78703,2,$4.17/month PIE members $2/hr Non-Members,"Public (Municipal, as in library, street, etc)",Parking,Commercial,NEMA 5-20R,240V,J1772,"30.316576, -97.757643",$4.17/month PIE members $2/hr Non-Members,40A
ROSCOE PROPERTI / TRIO MAIN,2413-2433 S Pleasant Valley Rd,,Austin,Texas,78741,2,$4.17/month PIE members $2/hr Non-Members,Multi-family residential,Multifamily Commercial,Apartment,J1772,240V,J1772,"30.228786, -97.726326",$4.17/month PIE members $2/hr Non-Members,40A
COA FLEET - PIE / RUTHERFORD #5,1520 Rutherford Ln,,Austin,Texas,78754,2,$4.17/month PIE members $2/hr Non-Members,"Public (Municipal, as in library, street, etc)",Municipal,Municipal Fleet,NEMA 5-20R,240V,J1772,"30.335863, -97.679329",$4.17/month PIE members $2/hr Non-Members,40A
PIE AE / PUBACCRIVERSID1,1230-1290 Grove Blvd,,Austin,Texas,78741,2,$4.17/month PIE members $2/hr Non-Members,Commercial with unrestricted access,Parking,Commercial,J1772,240V,J1772,"30.235093, -97.705194",$4.17/month PIE members $2/hr Non-Members,40A
DOMAIN / LEFT STATION,11501 Alterra Pkwy,,Austin,Texas,78758,1,$4.17/month PIE members $2/hr Non-Members,Commercial with restricted access,Workplace,General,J1772,--,--,"30.401181, -97.719499",$4.17/month PIE members $2/hr Non-Members,40A
PIE-CAPRIDGE / #1,115 Wild Basin Rd,,Austin,Texas,78746,2,$4.17/month PIE members $2/hr Non-Members,Commercial with unrestricted access,Workplace,General,J1772,240V,J1772,"30.304182, -97.828161",$4.17/month PIE members $2/hr Non-Members,40A
ENDEAVOR REG / LEVEL 4 - #3,4301 Bull Creek Rd,,Austin,Texas,78731,2,$4.17/month PIE members $2/hr Non-Members,Commercial with restricted access,Workplace,General,J1772,240V,J1772,"30.317706, -97.754927",$4.17/month PIE members $2/hr Non-Members,40A
CHEVY MAIN / AUTONATION MAIN,11400 Research Blvd,,Austin,Texas,78759,2,$4.17/month PIE members $2/hr Non-Members,Commercial with unrestricted access,Workplace,General,J1772,240V,J1772,"30.409556, -97.745947",$4.17/month PIE members $2/hr Non-Members,40A
THE GROVE / MAIN STATION 1,3707 Manchaca Rd,,Austin,Texas,78704,2,$4.17/month PIE members $2/hr Non-Members,Commercial with unrestricted access,Multifamily Commercial,Apartment,J1772,240V,J1772,"30.236473, -97.782607",$4.17/month PIE members $2/hr Non-Members,40A
PIE AE / PUBAISDBURGERC,3200 Jones Rd,,Sunset Valley,Texas,78745,2,$4.17/month PIE members $2/hr Non-Members,Commercial with unrestricted access,Parking,Commercial,NEMA 5-20R,240V,J1772,"30.228455, -97.809379",$4.17/month PIE members $2/hr Non-Members,40A
AUSTIN / 400 - 2,400 W Cesar Chavez St,,Austin,Texas,78701,2,$4.17/month PIE members $2/hr Non-Members,Commercial with restricted access,Workplace,High-Tech,J1772,240V,J1772,"30.265052, -97.74844",$4.17/month PIE members $2/hr Non-Members,40A
COA FLEET - PIE / RUTHERFORD #4,1520 Rutherford Ln,,Austin,Texas,78754,2,$4.17/month PIE members $2/hr Non-Members,Commercial with restricted access,Parking,Commercial,J1772,240V,J1772,"30.337741, -97.680766",$4.17/month PIE members $2/hr Non-Members,40A
TIG REAL ESTATE / PIE-STATION 1,Frontage Rd,,Austin,Texas,78746,2,$4.17/month PIE members $2/hr Non-Members,Commercial with unrestricted access,Workplace,General,NEMA 5-20R,240V,J1772,"30.265768, -97.779681",$4.17/month PIE members $2/hr Non-Members,40A
HANOVER / L1,110 San Antonio St,,Austin,Texas,78701,1,$4.17/month PIE members $2/hr Non-Members,Commercial with restricted access,Multifamily Commercial,Apartment,J1772,--,--,"30.265311, -97.74952",$4.17/month PIE members $2/hr Non-Members,40A
GALLERIA OAKS / GALLERIA OAKS 2,3927 Ranch Rd 620 S,,Austin,Texas,78738,2,$4.17/month PIE members $2/hr Non-Members,Commercial with unrestricted access,Workplace,General,J1772,240V,J1772,"30.313186, -97.946482",$4.17/month PIE members $2/hr Non-Members,40A
COA FLEET - PIE / MEINARD #1,4393-4799 Meinardus Dr,,Austin,Texas,78744,2,$4.17/month PIE members $2/hr Non-Members,"Public (Municipal, as in library, street, etc)",Municipal,Municipal Fleet,NEMA 5-20R,240V,J1772,"30.211361, -97.752083",$4.17/month PIE members $2/hr Non-Members,40A
PIE AE / PUBACCSVSCTRST2,9101 Exchange Dr,,Austin,Texas,78710,2,$4.17/month PIE members $2/hr Non-Members,Commercial with unrestricted access,Workplace,General,J1772,240V,J1772,"30.338568, -97.66223",$4.17/month PIE members $2/hr Non-Members,40A
PALOMA RIDGE / PALOMA BDG C #7,13620 N FM 620,,Austin,Texas,78717,2,$4.17/month PIE members $2/hr Non-Members,Commercial with unrestricted access,Workplace,General,J1772,240V,J1772,"30.477991, -97.77827",$4.17/month PIE members $2/hr Non-Members,40A
COA / DOA - CONRAC1,3819 Presidential Blvd,,Austin,Texas,78719,2,$4.17/month PIE members $2/hr Non-Members,Commercial with unrestricted access,Retail,Car Rental / Car Share,J1772,240V,J1772,"30.204711, -97.666322",$4.17/month PIE members $2/hr Non-Members,30A
FLORA / STATION 2,5406 Middle Fiskville Rd,,Austin,Texas,78751,2,$4.17/month PIE members $2/hr Non-Members,Commercial with restricted access,Multifamily Commercial,Apartment,J1772,240V,J1772,"30.316818, -97.714835",$4.17/month PIE members $2/hr Non-Members,40A
DSMCUT / EVSE06 FLOOR L2,501-573 E 15th St,,Austin,Texas,78701,2,$4.17/month PIE members $2/hr Non-Members,Commercial with unrestricted access,Healthcare,Hospital / Treatment Center,J1772,240V,J1772,"30.275229, -97.734575",$4.17/month PIE members $2/hr Non-Members,40A
ENDEAVOR REG / 2500 BEE CAVES2,2500 Bee Caves Rd.,,Austin,Texas,78746,2,$4.17/month PIE members $2/hr Non-Members,Commercial with restricted access,Workplace,General,J1772,240V,J1772,"30.267346, -97.783448",$4.17/month PIE members $2/hr Non-Members,40A
GIBSON FLATS / STATION1,1219 S Lamar Blvd,,Austin,Texas,78704,2,$4.17/month PIE members $2/hr Non-Members,Commercial with unrestricted access,Multifamily Commercial,Apartment,J1772,240V,J1772,"30.254007, -97.762023",$4.17/month PIE members $2/hr Non-Members,40A
PALOMA RIDGE / PALOMA BDG C #6,13620 N FM 620,,Austin,Texas,78717,2,$4.17/month PIE members $2/hr Non-Members,Commercial with unrestricted access,Workplace,General,J1772,240V,J1772,"30.477861, -97.7787",$4.17/month PIE members $2/hr Non-Members,40A
HPI 3700 / 3900 SC #2,3900 N Capital of Texas Hwy,,Austin,Texas,78746,2,$4.17/month PIE members $2/hr Non-Members,Commercial with unrestricted access,Workplace,General,J1772,240V,J1772,"30.337882, -97.807765",$4.17/month PIE members $2/hr Non-Members,40A
PIE AE / ZILKER PARK PH1,2201 William Barton Dr,,Austin,Texas,78746,2,$4.17/month PIE members $2/hr Non-Members,"Public (Municipal, as in library, street, etc)",Parks and Recreation,,J1772,240V,J1772,"30.264456, -97.771382",$4.17/month PIE members $2/hr Non-Members,40A
CTM / CTM,1124 IH 35,,Austin,Texas,78704,2,$4.17/month PIE members $2/hr Non-Members,Commercial with unrestricted access,Municipal,Municipal Workplace,J1772,240V,J1772,"30.244744, -97.735798",$4.17/month PIE members $2/hr Non-Members,
8611 MOPAC LLC / MOPAC 1,8611 Mopac Service Rd,,Austin,Texas,78759,2,$4.17/month PIE members $2/hr Non-Members,Commercial with unrestricted access,Workplace,General,J1772,240V,J1772,"30.373296, -97.739942",$4.17/month PIE members $2/hr Non-Members,40A
AMD GO GREEN / AMD P100 LG,7171 Southwest Pkwy,,Austin,Texas,78735,2,$4.17/month PIE members $2/hr Non-Members,Commercial with unrestricted access,Parking,Commercial,J1772,240V,J1772,"30.250807, -97.861761",$4.17/month PIE members $2/hr Non-Members,40A
DSMCUT / EVSE03 FLOOR L5,501-573 E 15th St,,Austin,Texas,78701,2,$4.17/month PIE members $2/hr Non-Members,Commercial with unrestricted access,Healthcare,Hospital / Treatment Center,J1772,240V,J1772,"30.275274, -97.734552",$4.17/month PIE members $2/hr Non-Members,40A
PIE AE / PUB-HEBCONGRESS,2400-2424 S Congress Ave,,Austin,Texas,78704,2,$4.17/month PIE members $2/hr Non-Members,Commercial with unrestricted access,Parking,Commercial,J1772,240V,J1772,"30.238689, -97.753858",$4.17/month PIE members $2/hr Non-Members,40A
FOUNDRY / STATION 2,310 Comal St,,Austin,Texas,78702,2,$4.17/month PIE members $2/hr Non-Members,Commercial with unrestricted access,Workplace,General,J1772,240V,J1772,"30.261097, -97.727847",$4.17/month PIE members $2/hr Non-Members,40A
PIE AE / PUB ACC EVIEW1,3401 Webberville Rd,,Austin,Texas,78702,2,$4.17/month PIE members $2/hr Non-Members,Commercial with unrestricted access,Parking,Commercial,J1772,240V,J1772,"30.268116, -97.706104",$4.17/month PIE members $2/hr Non-Members,40A
CITY VIEW / STATION1,1250 S Capital of Texas Hwy,,Austin,Texas,78746,2,$4.17/month PIE members $2/hr Non-Members,Commercial with unrestricted access,Workplace,General,J1772,240V,J1772,"30.280698, -97.824024",$4.17/month PIE members $2/hr Non-Members,40A
NATIONAL INSTRU / 15&16;,11500 N Mopac Expy,,Austin,Texas,78759,2,$4.17/month PIE members $2/hr Non-Members,Commercial with unrestricted access,Workplace,High-Tech,J1772,240V,J1772,"30.408822, -97.725196",$4.17/month PIE members $2/hr Non-Members,40A
FLORA / STATION 1,5406 Middle Fiskville Rd,,Austin,Texas,78751,2,$4.17/month PIE members $2/hr Non-Members,Commercial with restricted access,Multifamily Commercial,Apartment,J1772,240V,J1772,"30.316671, -97.714957",$4.17/month PIE members $2/hr Non-Members,40A
RPP GARAGE / ISLAND GW,12301 Research Blvd,,Austin,Texas,78759,2,$4.17/month PIE members $2/hr Non-Members,Commercial with unrestricted access,Workplace,General,J1772,240V,J1772,"30.428017, -97.754379",$4.17/month PIE members $2/hr Non-Members,40A
PIE AE / RIO REMOVED SCA,1212 Rio Grande St,,Austin,Texas,78701,2,$4.17/month PIE members $2/hr Non-Members,Commercial with unrestricted access,Parking,Commercial,NEMA 5-20R,240V,J1772,"30.277252, -97.747261",$4.17/month PIE members $2/hr Non-Members,40A
WALLERCREEKSIDE / CREEKSIDE1,102-104 E 50th St,,Austin,Texas,78751,1,$4.17/month PIE members $2/hr Non-Members,Commercial with unrestricted access,Multifamily Commercial,Apartment,J1772,--,--,"30.315229, -97.724395",$4.17/month PIE members $2/hr Non-Members,40A
DOMAIN / RIGHT STATION,11501 Alterra Pkwy,,Austin,Texas,78758,1,$4.17/month PIE members $2/hr Non-Members,Commercial with restricted access,Workplace,General,J1772,--,--,"30.401174, -97.719445",$4.17/month PIE members $2/hr Non-Members,40A
AUSTIN / 400 - 3,400 W Cesar Chavez St,,Austin,Texas,78701,2,$4.17/month PIE members $2/hr Non-Members,Commercial with restricted access,Workplace,High-Tech,J1772,240V,J1772,"30.26505, -97.74849",$4.17/month PIE members $2/hr Non-Members,40A
ENDEAVOR REG / LEVEL 3 - #3,4301 Bull Creek Rd,,Austin,Texas,78731,2,$4.17/month PIE members $2/hr Non-Members,Commercial with restricted access,Workplace,General,J1772,240V,J1772,"30.317747, -97.755004",$4.17/month PIE members $2/hr Non-Members,40A
FROST / 3,515 Congress Ave,,Austin,Texas,78701,2,$4.17/month PIE members $2/hr Non-Members,Commercial with restricted access,Parking,Commercial,J1772,240V,J1772,"30.267548, -97.742316",$4.17/month PIE members $2/hr Non-Members,40A
COA / NEWCENTRALLIB3,710 W Cesar Chavez St,,Austin,Texas,78701,2,$4.17/month PIE members $2/hr Non-Members,"Public (Municipal, as in library, street, etc)",Municipal,Library,J1772,240V,J1772,"30.266102, -97.751688",$4.17/month PIE members $2/hr Non-Members,40A
FOUNDATION COMM / JORDAN2,2724 Philomena St,,Austin,Texas,78723,2,$4.17/month PIE members $2/hr Non-Members,Multi-family residential,Multifamily Commercial,Apartment,J1772,240V,J1772,"30.298662, -97.694714",$4.17/month PIE members $2/hr Non-Members,40A
COA FLEET - PIE / ROOF5,612 E 9th St,,Austin,Texas,78701,2,$4.17/month PIE members $2/hr Non-Members,Commercial with restricted access,Municipal,Municipal Fleet,J1772,240V,J1772,"30.269395, -97.735644",$4.17/month PIE members $2/hr Non-Members,40A
PIE AE / PUBGABLESPRESS1,1313 W 6th St,,Austin,Texas,78703,2,$4.17/month PIE members $2/hr Non-Members,Commercial with unrestricted access,Parking,Commercial,J1772,240V,J1772,"30.273141, -97.759947",$4.17/month PIE members $2/hr Non-Members,40A
AVIATION / 4TH FLOOR,3201 Presidential Blvd,,Austin,Texas,78719,2,$4.17/month PIE members $2/hr Non-Members,"Public (Municipal, as in library, street, etc)",Parks and Recreation,,J1772,240V,J1772,"30.204614, -97.669503",$4.17/month PIE members $2/hr Non-Members,40A
RIDGE OFFICE / THE RIDGE GW,6805 Wood Hollow Dr,,Austin,Texas,78731,2,$4.17/month PIE members $2/hr Non-Members,Multi-family residential,Multifamily Commercial,Apartment,J1772,240V,J1772,"30.350591, -97.754534",$4.17/month PIE members $2/hr Non-Members,40A
MONOGRAM / PARKING 2-3,615 W 7th St,,Austin,Texas,78701,2,$4.17/month PIE members $2/hr Non-Members,Multi-family residential,Multifamily Commercial,Apartment,J1772,240V,J1772,"30.270562, -97.748959",$4.17/month PIE members $2/hr Non-Members,40A
ROSCOE PROPERTI / CURRENT MAIN,2057-2105 Willow Creek Dr,,Austin,Texas,78741,2,$4.17/month PIE members $2/hr Non-Members,Multi-family residential,Multifamily Commercial,Apartment,J1772,240V,J1772,"30.231758, -97.729473",$4.17/month PIE members $2/hr Non-Members,40A
COA FLEET - PIE / RUTHERFORD #2,1520 Rutherford Ln,,Austin,Texas,78754,2,$4.17/month PIE members $2/hr Non-Members,"Public (Municipal, as in library, street, etc)",Municipal,Municipal Fleet,NEMA 5-20R,240V,J1772,"30.335873, -97.679359",$4.17/month PIE members $2/hr Non-Members,40A
PIE AE / TACARASR1,4901 Ranch Rd 620 N,,Austin,Texas,78732,2,$4.17/month PIE members $2/hr Non-Members,Commercial with unrestricted access,Parking,Commercial,J1772,240V,J1772,"30.385777, -97.886769",$4.17/month PIE members $2/hr Non-Members,40A
PIE AE / ANIMAL SERVICE5,7201 lavender loop,,Austin,Texas,78702,2,$4.17/month PIE members $2/hr Non-Members,Commercial with unrestricted access,Parking,Commercial,J1772,240V,J1772,"30.251587, -97.690788",$4.17/month PIE members $2/hr Non-Members,40A
THE SANTAL / SANTAL1,7624 Tecoma Circle,,Austin,Texas,78735,2,$4.17/month PIE members $2/hr Non-Members,Multi-family residential,Multifamily Commercial,Apartment,J1772,240V,J1772,"30.259641, -97.859784",$4.17/month PIE members $2/hr Non-Members,40A
RIALTO / STATION1,7500 Rialto Blvd,,Austin,Texas,78735,2,$4.17/month PIE members $2/hr Non-Members,Commercial with unrestricted access,Workplace,General,J1772,240V,J1772,"30.254075, -97.870716",$4.17/month PIE members $2/hr Non-Members,40A
INT-BIO EV CHGR / INTBIO EV CHGR1,8206 Cross Park Dr,,Austin,Texas,78754,2,$4.17/month PIE members $2/hr Non-Members,Commercial with unrestricted access,Workplace,High-Tech,J1772,240V,J1772,"30.33089, -97.668908",$4.17/month PIE members $2/hr Non-Members,40A
PIE AE / SMART CHARGE 2,2016 Centimeter Cir,,Austin,Texas,78758,2,$4.17/month PIE members $2/hr Non-Members,Commercial with unrestricted access,Workplace,General,J1772,240V,J1772,"30.381493, -97.713361",$4.17/month PIE members $2/hr Non-Members,40A
MONOGRAM / HANDICAP,615 W 7th St,,Austin,Texas,78701,1,$4.17/month PIE members $2/hr Non-Members,Multi-family residential,Multifamily Commercial,Apartment,J1772,--,--,"30.270571, -97.748993",$4.17/month PIE members $2/hr Non-Members,40A
CHAMPION OFFICE / EV #2,6433 Champion Grandview Way,,Austin,Texas,78750,2,$4.17/month PIE members $2/hr Non-Members,Commercial with restricted access,Parking,Commercial,J1772,240V,J1772,"30.3632, -97.793703",$4.17/month PIE members $2/hr Non-Members,40A
YETI RAMBLERS / EVSE #3,7601 Southwest Pkwy,,Austin,Texas,78735,2,$4.17/month PIE members $2/hr Non-Members,Commercial with unrestricted access,Multifamily Commercial,Apartment,J1772,240V,J1772,"30.255741, -97.872431",$4.17/month PIE members $2/hr Non-Members,40A
PARK&ZOOM / VALET #6,9518 Hotel Dr,,Austin,Texas,78719,2,$4.17/month PIE members $2/hr Non-Members,Commercial with unrestricted access,Parking,Airport,J1772,240V,J1772,"30.211848, -97.662017",$4.17/month PIE members $2/hr Non-Members,40A
AMD GO GREEN / P100 FL4 OUTER,7171 Southwest Pkwy,,Austin,Texas,78735,2,$4.17/month PIE members $2/hr Non-Members,Commercial with unrestricted access,Workplace,General,J1772,240V,J1772,"30.250779, -97.86175",$4.17/month PIE members $2/hr Non-Members,40A
PIE AE / TLC STATI0N 2,721 Barton Springs Rd,,Austin,Texas,78704,2,$4.17/month PIE members $2/hr Non-Members,Commercial with unrestricted access,Parking,Commercial,J1772,240V,J1772,"30.258333, -97.75191",$4.17/month PIE members $2/hr Non-Members,40A
ENCINO STATIONS / STATION 2,5707 Southwest Pkwy,,Austin,Texas,78735,2,$4.17/month PIE members $2/hr Non-Members,Commercial with unrestricted access,Workplace,General,J1772,240V,J1772,"30.243719, -97.845686",$4.17/month PIE members $2/hr Non-Members,40A
PRESIDIUM / VUE,7607 Blessing Ave,,Austin,Texas,78752,2,$4.17/month PIE members $2/hr Non-Members,Commercial with unrestricted access,Multifamily Commercial,Apartment,J1772,240V,J1772,"30.333857, -97.691302",$4.17/month PIE members $2/hr Non-Members,40A
THE MEDVE GROUP / TURTLE CREEK,5946 S 1st St,,Austin,Texas,78745,2,$4.17/month PIE members $2/hr Non-Members,Multi-family residential,Multifamily Commercial,Apartment,J1772,240V,J1772,"30.204478, -97.783736",$4.17/month PIE members $2/hr Non-Members,40A
PIE AE / ANIMAL SERVICE3,7201 Levander Loop,,Austin,Texas,78721,2,$4.17/month PIE members $2/hr Non-Members,Commercial with unrestricted access,Parking,Commercial,J1772,240V,J1772,"30.251538, -97.690807",$4.17/month PIE members $2/hr Non-Members,40A
COA / NEWCENTRALLIB2,710 W Cesar Chavez St,,Austin,Texas,78701,2,$4.17/month PIE members $2/hr Non-Members,"Public (Municipal, as in library, street, etc)",Municipal,Library,J1772,240V,J1772,"30.266118, -97.751731",$4.17/month PIE members $2/hr Non-Members,40A
PIE AE / ERCOT 2,7620 Metro Center Dr,,Austin,Texas,78744,2,$4.17/month PIE members $2/hr Non-Members,Commercial with unrestricted access,Municipal,Municipal Workplace,NEMA 5-20R,240V,J1772,"30.216521, -97.691645",$4.17/month PIE members $2/hr Non-Members,40A
RAINEY STREET / MILLENNIUM 02,92 Rainey St,,Austin,Texas,78701,2,$4.17/month PIE members $2/hr Non-Members,Multi-family residential,Multifamily Commercial,Apartment,J1772,240V,J1772,"30.260538, -97.738296",$4.17/month PIE members $2/hr Non-Members,40A
HANOVER / L6,110 San Antonio St,,Austin,Texas,78701,1,$4.17/month PIE members $2/hr Non-Members,Commercial with restricted access,Multifamily Commercial,Apartment,J1772,--,--,"30.265239, -97.74912",$4.17/month PIE members $2/hr Non-Members,40A
ROSCOE PROPERTI / THE CONNECTION,4404 E Oltorf St,,Austin,Texas,78741,2,$4.17/month PIE members $2/hr Non-Members,Multi-family residential,Multifamily Commercial,Apartment,J1772,240V,J1772,"30.227456, -97.726096",$4.17/month PIE members $2/hr Non-Members,40A
BV LAKEWAY / STATION1,107 Bella Montagna Cir,,Lakeway,Texas,78734,2,$4.17/month PIE members $2/hr Non-Members,Multi-family residential,Multifamily Commercial,Apartment,J1772,240V,J1772,"30.35822, -97.958301",$4.17/month PIE members $2/hr Non-Members,40A
ENDEAVOR REG / 901 E 6TH ST 3,901 E 6th St,,Austin,Texas,78702,2,$4.17/month PIE members $2/hr Non-Members,Multi-family residential,Multifamily Commercial,Apartment,J1772,240V,J1772,"30.264999, -97.733411",$4.17/month PIE members $2/hr Non-Members,40A
SOLARWINDS / SOLARWINDS #2,7171 Southwest Pkwy,P400 Garage,Austin,Texas,78735,2,$4.17/month PIE members $2/hr Non-Members,Commercial with unrestricted access,Workplace,High-Tech,J1772,240V,J1772,"30.250799, -97.862755",$4.17/month PIE members $2/hr Non-Members,40A
COA FLEET - PIE / ROOF6,700-798 E 9th St,,Austin,Texas,78701,2,$4.17/month PIE members $2/hr Non-Members,"Public (Municipal, as in library, street, etc)",Municipal,Municipal Fleet,NEMA 5-20R,240V,J1772,"30.268866, -97.734612",$4.17/month PIE members $2/hr Non-Members,40A
PIE AE / PUB M STATION 1,2901 E 16th St,,Austin,Texas,78702,2,$4.17/month PIE members $2/hr Non-Members,Commercial with unrestricted access,Parking,Commercial,J1772,240V,J1772,"30.278956, -97.708847",$4.17/month PIE members $2/hr Non-Members,40A
PARKING LEVEL 1 / GATEWAY 1 MAIN,11301 Domain Dr,,Austin,Texas,78758,2,$4.17/month PIE members $2/hr Non-Members,Multi-family residential,Multifamily Commercial,Apartment,J1772,240V,J1772,"30.3987, -97.724056",$4.17/month PIE members $2/hr Non-Members,40A
SALTILLO / BLOCK 1,901 E 5th St,,Austin,Texas,78702,2,$4.17/month PIE members $2/hr Non-Members,Multi-family residential,Multifamily Commercial,Apartment,J1772,240V,J1772,"30.264446, -97.733595",$4.17/month PIE members $2/hr Non-Members,40A
HABITAT SUITES / DUAL PORT,500 E Highland Mall Blvd,,Austin,Texas,78752,2,$4.17/month PIE members $2/hr Non-Members,Commercial with unrestricted access,Workplace,General,J1772,240V,J1772,"30.329139, -97.709555",$4.17/month PIE members $2/hr Non-Members,40A
SAS / SAMSUNG 4,12100 samsung blvd,,Austin,Texas,78754,2,$4.17/month PIE members $2/hr Non-Members,Commercial with unrestricted access,Workplace,General,J1772,240V,J1772,"30.377514, -97.639643",$4.17/month PIE members $2/hr Non-Members,40A
PIE AE / PUB DELL1,1345 Philomena St,,Austin,Texas,78723,2,$4.17/month PIE members $2/hr Non-Members,Commercial with unrestricted access,Parking,Commercial,J1772,240V,J1772,"30.302504, -97.706976",$4.17/month PIE members $2/hr Non-Members,40A
W1 / W1,4100 Jackson Ave,,Austin,Texas,78731,2,$4.17/month PIE members $2/hr Non-Members,Commercial with restricted access,Workplace,General,J1772,240V,J1772,"30.315142, -97.755709",$4.17/month PIE members $2/hr Non-Members,40A
DSMCUT / EVSE02 FLOOR L6,501-573 E 15th St,,Austin,Texas,78701,2,$4.17/month PIE members $2/hr Non-Members,Commercial with unrestricted access,Healthcare,Hospital / Treatment Center,J1772,240V,J1772,"30.275264, -97.734579",$4.17/month PIE members $2/hr Non-Members,40A
ENDEAVOR REG / LEVEL 4 - #2,4301 Bull Creek Rd,,Austin,Texas,78731,2,$4.17/month PIE members $2/hr Non-Members,Commercial with restricted access,Workplace,General,J1772,240V,J1772,"30.317737, -97.754947",$4.17/month PIE members $2/hr Non-Members,40A
PIE AE / PUBHARCON L2,6601 Vaught Ranch Rd,,Austin,Texas,78730,2,$4.17/month PIE members $2/hr Non-Members,Commercial with unrestricted access,Workplace,General,J1772,240V,J1772,"30.373046, -97.806478",$4.17/month PIE members $2/hr Non-Members,40A
120 ENTRANCE / ACH MAIN,Best Western PLUS Austin CIty Hotel,2200 S. Interstate 35,Austin,Texas,78704,2,$4.17/month PIE members $2/hr Non-Members,Commercial with unrestricted access,Hospitality,Hotel / Resort,J1772,240V,J1772,"30.235856, -97.741577",$4.17/month PIE members $2/hr Non-Members,40A
OPHTHALMOLOGY / AUSTIN EYE STA1,1009 E 40th St,,Austin,Texas,78751,2,$4.17/month PIE members $2/hr Non-Members,Commercial with unrestricted access,Workplace,General,J1772,240V,J1772,"30.296713, -97.719788",$4.17/month PIE members $2/hr Non-Members,40A
COA FLEET - PIE / TOOMEY #1,1501 Toomey Rd,,Austin,Texas,78704,2,$4.17/month PIE members $2/hr Non-Members,"Public (Municipal, as in library, street, etc)",Municipal,Municipal Fleet,NEMA 5-20R,240V,J1772,"30.263723, -97.759262",$4.17/month PIE members $2/hr Non-Members,40A
ENDEAVOR REG / ENDEAVOR STAT1,2021 E 4th St,,Austin,Texas,78702,2,$4.17/month PIE members $2/hr Non-Members,Commercial with unrestricted access,Workplace,General,J1772,240V,J1772,"30.259477, -97.720197",$4.17/month PIE members $2/hr Non-Members,40A
PIE AE / PALMER STATION2,736-820 Barton Springs Rd,,Austin,Texas,78704,2,$4.17/month PIE members $2/hr Non-Members,Commercial with unrestricted access,Parking,Commercial,J1772,240V,J1772,"30.259201, -97.751695",$4.17/month PIE members $2/hr Non-Members,40A
SOLARWINDS / SOLARWINDS #1,7171 Southwest Parkway,P400 Garage,Austin,Texas,78735,2,$4.17/month PIE members $2/hr Non-Members,Commercial with unrestricted access,Workplace,High-Tech,J1772,240V,J1772,"30.251073, -97.86319",$4.17/month PIE members $2/hr Non-Members,40A
PIE AE / PUB UTANTONIO 2,2420 San Antonio St,,Austin,Texas,78705,2,$4.17/month PIE members $2/hr Non-Members,"Public (Municipal, as in library, street, etc)",Parking,Commercial,J1772,240V,J1772,"30.288705, -97.742539",$4.17/month PIE members $2/hr Non-Members,40A
NEIGHBORHOOD HO / 912 E11TH STAT1,901 Juniper St,,Austin,Texas,78702,2,$4.17/month PIE members $2/hr Non-Members,Commercial with unrestricted access,Workplace,General,J1772,240V,J1772,"30.270384, -97.73108",$4.17/month PIE members $2/hr Non-Members,40A
THE ELIZABETH / THE ELIZABETH 1,13535 Lyndhurst St,,Austin,Texas,78717,2,$4.17/month PIE members $2/hr Non-Members,Multi-family residential,Multifamily Commercial,Apartment,J1772,240V,J1772,"30.477257, -97.78503",$4.17/month PIE members $2/hr Non-Members,40A
PIE AE / PUB LOCKHART 1,319 W Slaughter Ln,,Austin,Texas,78748,2,$4.17/month PIE members $2/hr Non-Members,Commercial with unrestricted access,Workplace,General,NEMA 5-20R,240V,J1772,"30.168498, -97.795821",$4.17/month PIE members $2/hr Non-Members,40A
PARKSIDE 1 / PARKSIDE1,3000 Kramer Ln,,Austin,Texas,78758,2,$4.17/month PIE members $2/hr Non-Members,Commercial with restricted access,Retail,Shopping Center,J1772,240V,J1772,"30.396412, -97.72268",$4.17/month PIE members $2/hr Non-Members,40A
1500 ROYAL / ELEMENT AUSTIN,1500 Royal Crest Dr,,Austin,Texas,78741,2,$4.17/month PIE members $2/hr Non-Members,Commercial with unrestricted access,Multifamily Commercial,Apartment,J1772,240V,J1772,"30.240527, -97.730373",$4.17/month PIE members $2/hr Non-Members,40A
REPUBLICSQUARE / GABLES REPUB5,219 W 4th St,,Austin,Texas,78701,2,$4.17/month PIE members $2/hr Non-Members,Multi-family residential,Multifamily Commercial,Apartment,J1772,240V,J1772,"30.266691, -97.745766",$4.17/month PIE members $2/hr Non-Members,40A
NATIONAL INSTRU / 23&24;,11500B N Mopac Expy,,Austin,Texas,78759,2,$4.17/month PIE members $2/hr Non-Members,Commercial with unrestricted access,Workplace,High-Tech,J1772,240V,J1772,"30.407286, -97.727058",$4.17/month PIE members $2/hr Non-Members,40A
PIE AE / PUB-STDAVIDSST1,710 Trinity St,,Austin,Texas,78701,2,$4.17/month PIE members $2/hr Non-Members,Commercial with unrestricted access,Parking,Commercial,NEMA 5-20R,240V,J1772,"30.268719, -97.738899",$4.17/month PIE members $2/hr Non-Members,40A
ARBORETUM / N CAPITAL TX 1,9442 N Capital of Texas Hwy,,Austin,Texas,78759,2,$4.17/month PIE members $2/hr Non-Members,Commercial with unrestricted access,Workplace,General,NEMA 5-20R,240V,J1772,"30.390246, -97.74825",$4.17/month PIE members $2/hr Non-Members,40A
ENDEAVOR REG / STATION 1,11001 Lakeline Blvd,,Austin,Texas,78717,2,$4.17/month PIE members $2/hr Non-Members,Commercial with unrestricted access,Workplace,General,J1772,240V,J1772,"30.479664, -97.793921",$4.17/month PIE members $2/hr Non-Members,40A
REPUBLICSQUARE / GABLES REPUB4,219 W 4th St,,Austin,Texas,78701,2,$4.17/month PIE members $2/hr Non-Members,Multi-family residential,Multifamily Commercial,Apartment,J1772,240V,J1772,"30.266802, -97.74575",$4.17/month PIE members $2/hr Non-Members,40A
PIE AE / ZILKERPARKPOLO2,2225 Andrew Zilker Rd,,Austin,Texas,78746,2,$4.17/month PIE members $2/hr Non-Members,"Public (Municipal, as in library, street, etc)",Parks and Recreation,,J1772,240V,J1772,"30.266457, -97.774745",$4.17/month PIE members $2/hr Non-Members,40A
DOMAIN / STATION 2,11601 Alterra Parkway,,Austin,Texas,78758,2,$4.17/month PIE members $2/hr Non-Members,Commercial with restricted access,Workplace,General,J1772,240V,J1772,"30.402314, -97.718842",$4.17/month PIE members $2/hr Non-Members,40A
1801 E 6TH / AUSTIN 1801 3,1805 E 6th St,,Austin,Texas,78702,2,$4.17/month PIE members $2/hr Non-Members,Commercial with restricted access,Parking,Commercial,J1772,240V,J1772,"30.261633, -97.723906",$4.17/month PIE members $2/hr Non-Members,40A
DEVLOPER / TRAMMELL CROW 6,500 W 2nd St,,Austin,Texas,78701,2,$4.17/month PIE members $2/hr Non-Members,Commercial with unrestricted access,Workplace,General,J1772,240V,J1772,"30.265909, -97.748953",$4.17/month PIE members $2/hr Non-Members,40A
DSMCUT / EVSE01 FLOOR L7,501-573 E 15th St,,Austin,Texas,78701,2,$4.17/month PIE members $2/hr Non-Members,Commercial with unrestricted access,Healthcare,Hospital / Treatment Center,J1772,240V,J1772,"30.275261, -97.73458",$4.17/month PIE members $2/hr Non-Members,40A
ENDEAVOR REG / LEVEL 4 - #1,4301 Bull Creek Rd,,Austin,Texas,78731,2,$4.17/month PIE members $2/hr Non-Members,Commercial with restricted access,Workplace,General,J1772,240V,J1772,"30.317777, -97.754969",$4.17/month PIE members $2/hr Non-Members,40A
PIE AE / PUBACCRIVERSID2,1230-1290 Grove Blvd,,Austin,Texas,78741,2,$4.17/month PIE members $2/hr Non-Members,Commercial with unrestricted access,Parking,Commercial,J1772,240V,J1772,"30.235079, -97.705153",$4.17/month PIE members $2/hr Non-Members,40A
COA FLEET - PIE / RUTHERFORD #1,1520 Rutherford Ln,,Austin,Texas,78754,2,$4.17/month PIE members $2/hr Non-Members,"Public (Municipal, as in library, street, etc)",Municipal,Municipal Fleet,NEMA 5-20R,240V,J1772,"30.335861, -97.679398",$4.17/month PIE members $2/hr Non-Members,40A
PIE AE / PUBDENNYSNORTH1,1601 Interstate 35 Frontage Road,,Austin,Texas,78702,2,$4.17/month PIE members $2/hr Non-Members,Commercial with unrestricted access,Parking,Commercial,J1772,240V,J1772,"30.276513, -97.729639",$4.17/month PIE members $2/hr Non-Members,40A
AUSTIN / AUSTIN 200 3,200 W Cesar Chavez St,,Austin,Texas,78701,2,$4.17/month PIE members $2/hr Non-Members,Commercial with restricted access,Workplace,High-Tech,J1772,240V,J1772,"30.264505, -97.746067",$4.17/month PIE members $2/hr Non-Members,40A
100 CONGRESS / STATION 1,100 Congress Ave,,Austin,Texas,78701,2,$4.17/month PIE members $2/hr Non-Members,Commercial with unrestricted access,Parking,Commercial,J1772,240V,J1772,"30.263961, -97.744801",$4.17/month PIE members $2/hr Non-Members,40A
REPUBLICSQUARE / GABLES REPUB1,311 W 5th St,,Austin,Texas,78701,2,$4.17/month PIE members $2/hr Non-Members,Multi-family residential,Multifamily Commercial,Apartment,J1772,240V,J1772,"30.267609, -97.746544",$4.17/month PIE members $2/hr Non-Members,40A
PIE AE / PUB ACC EVIEW2,3401 Webberville Rd,,Austin,Texas,78702,2,$4.17/month PIE members $2/hr Non-Members,Commercial with unrestricted access,Parking,Commercial,J1772,240V,J1772,"30.268166, -97.706101",$4.17/month PIE members $2/hr Non-Members,40A
SALTILLO / BLOCK 3,1109 E 5th St,,Austin,Texas,78702,2,$4.17/month PIE members $2/hr Non-Members,Multi-family residential,Multifamily Commercial,Apartment,J1772,240V,J1772,"30.263129, -97.731254",$4.17/month PIE members $2/hr Non-Members,20A
PIE PRESERVE / MAIN GATEWAY 1,5604 Southwest Pkwy,,Austin,Texas,78735,2,$4.17/month PIE members $2/hr Non-Members,Multi-family residential,Multifamily Commercial,Apartment,J1772,240V,J1772,"30.246834, -97.846018",$4.17/month PIE members $2/hr Non-Members,40A
7700 PARMER / 7700 PARMER 3,7700 W PARMER LN,,Austin,Texas,78729,2,$4.17/month PIE members $2/hr Non-Members,Commercial with unrestricted access,Workplace,High-Tech,J1772,240V,J1772,"30.458615, -97.752557",$4.17/month PIE members $2/hr Non-Members,40A
GPT / GPT 2,830 W 3rd St,,Austin,Texas,78701,2,$4.17/month PIE members $2/hr Non-Members,Commercial with unrestricted access,Multifamily Commercial,Apartment,J1772,240V,J1772,"30.268498, -97.754605",$4.17/month PIE members $2/hr Non-Members,40A
7700 PARMER / 7700 PARMER,7700 W Parmer Ln,,Austin,Texas,78729,2,$4.17/month PIE members $2/hr Non-Members,Commercial with unrestricted access,Workplace,General,J1772,240V,J1772,"30.460477, -97.750024",$4.17/month PIE members $2/hr Non-Members,40A
RPP GARAGE / GARAGE GW,12455 Research Park Loop,,Austin,Texas,78727,2,$4.17/month PIE members $2/hr Non-Members,Commercial with unrestricted access,Workplace,General,J1772,240V,J1772,"30.429363, -97.755248",$4.17/month PIE members $2/hr Non-Members,40A
CATHERINE / CATHERINE 2,300 Barton Springs Rd,,Austin,Texas,78704,2,$4.17/month PIE members $2/hr Non-Members,Multi-family residential,Multifamily Commercial,Apartment,J1772,240V,J1772,"30.259099, -97.747754",$4.17/month PIE members $2/hr Non-Members,40A
PIE AE / TLC STATION 1,721 Barton Springs Rd,,Austin,Texas,78704,2,$4.17/month PIE members $2/hr Non-Members,Commercial with unrestricted access,Parking,Commercial,J1772,240V,J1772,"30.258379, -97.751993",$4.17/month PIE members $2/hr Non-Members,40A
PIE AE / PUBDITTMAR1,1007 W Dittmar Rd,,Austin,Texas,78745,2,$4.17/month PIE members $2/hr Non-Members,"Public (Municipal, as in library, street, etc)",Parks and Recreation,,J1772,240V,J1772,"30.185301, -97.801234",$4.17/month PIE members $2/hr Non-Members,40A
PIE AE / TECHNICENTER1,4101 Ed Bluestein Blvd,,Austin,Texas,78721,2,$4.17/month PIE members $2/hr Non-Members,Commercial with unrestricted access,Parking,Commercial,J1772,240V,J1772,"30.276909, -97.666756",$4.17/month PIE members $2/hr Non-Members,40A
ENDEAVOR REG / LEVEL 2 - #1,4301 Bull Creek Rd,,Austin,Texas,78731,2,$4.17/month PIE members $2/hr Non-Members,Commercial with restricted access,Workplace,General,J1772,240V,J1772,"30.317656, -97.754999",$4.17/month PIE members $2/hr Non-Members,40A
SILVER DOLLAR 1 / VAPRO SUPPLY,3600 Silver Dollar Cir,,Austin,Texas,78744,2,$4.17/month PIE members $2/hr Non-Members,Commercial with restricted access,Workplace,General,J1772,240V,J1772,"30.205844, -97.711346",$4.17/month PIE members $2/hr Non-Members,40A
MUELLER MARKET / MUELLER ST1,"1801 E 51st St Austin, TX 78723",,Austin,Texas,78723,1,$4.17/month PIE members $2/hr Non-Members,Commercial with unrestricted access,Workplace,General,J1772,--,--,"30.300963, -97.699557",$4.17/month PIE members $2/hr Non-Members,40A
SAS / SAMSUNG 5,12100 samsung blvd,,Austin,Texas,78754,2,$4.17/month PIE members $2/hr Non-Members,Commercial with unrestricted access,Workplace,General,J1772,240V,J1772,"30.377397, -97.639766",$4.17/month PIE members $2/hr Non-Members,40A
PIE AE / NWRECCENTER 4,2913 Northland Dr,,Austin,Texas,78757,2,$4.17/month PIE members $2/hr Non-Members,Commercial with unrestricted access,Parking,Commercial,J1772,240V,J1772,"30.333969, -97.751358",$4.17/month PIE members $2/hr Non-Members,40A
PRESIDIUM / ELEVATION,1911 Willow Creek Dr,,Austin,Texas,78741,2,$4.17/month PIE members $2/hr Non-Members,Commercial with unrestricted access,Multifamily Commercial,Apartment,J1772,240V,J1772,"30.233914, -97.727254",$4.17/month PIE members $2/hr Non-Members,40A
HANOVER / L2,100-110 San Antonio St,,Austin,Texas,78701,1,$4.17/month PIE members $2/hr Non-Members,Commercial with restricted access,Multifamily Commercial,Apartment,J1772,--,--,"30.265147, -97.749142",$4.17/month PIE members $2/hr Non-Members,40A
PIE AE / PUBHEBBRODIEST1,6636-6804 Brodie Ln,,Austin,Texas,78745,2,$4.17/month PIE members $2/hr Non-Members,Commercial with unrestricted access,Parking,Commercial,J1772,240V,J1772,"30.216125, -97.829537",$4.17/month PIE members $2/hr Non-Members,40A
SCHOOL / KEALING1,1607 Pennsylvania Ave,,Austin,Texas,78702,2,$4.17/month PIE members $2/hr Non-Members,"Public (Municipal, as in library, street, etc)",Education,High School / Other,J1772,240V,J1772,"30.271324, -97.722928",$4.17/month PIE members $2/hr Non-Members,40A
COA / LOT J NW,10137 Hotel Dr,,Austin,Texas,78719,2,$4.17/month PIE members $2/hr Non-Members,"Public (Municipal, as in library, street, etc)",Workplace,General,J1772,240V,J1772,"30.207439, -97.661026",$4.17/month PIE members $2/hr Non-Members,40A
CIELO CENTER / STATION 2,1250 S Capital of Texas Hwy,,Austin,Texas,78746,2,$4.17/month PIE members $2/hr Non-Members,Commercial with restricted access,Workplace,General,J1772,240V,J1772,"30.280288, -97.823472",$4.17/month PIE members $2/hr Non-Members,40A
HAWTHORNE / STATION 1,2239 Cromwell Cir,,Austin,Texas,78741,2,$4.17/month PIE members $2/hr Non-Members,Commercial with unrestricted access,Multifamily Commercial,Apartment,J1772,240V,J1772,"30.227434, -97.71854",$4.17/month PIE members $2/hr Non-Members,40A
PIE AE / PUB DELL2,1345 Philomena St,,Austin,Texas,78723,2,$4.17/month PIE members $2/hr Non-Members,Commercial with unrestricted access,Parking,Commercial,J1772,240V,J1772,"30.302551, -97.707079",$4.17/month PIE members $2/hr Non-Members,40A
PIE AE / ANIMAL SERVICE4,7201 Levander Loop,,Austin,Texas,78721,2,$4.17/month PIE members $2/hr Non-Members,Commercial with unrestricted access,Parking,Commercial,J1772,240V,J1772,"30.251539, -97.690799",$4.17/month PIE members $2/hr Non-Members,40A
COA FLEET - PIE / SPRING #1,800-816 Springdale Rd,,Austin,Texas,78702,2,$4.17/month PIE members $2/hr Non-Members,"Public (Municipal, as in library, street, etc)",Municipal,Municipal Fleet,NEMA 5-20R,240V,J1772,"30.259113, -97.699699",$4.17/month PIE members $2/hr Non-Members,40A
ST. JOHNS WEST / ST JOHNS SW,601 W St Johns Ave,,Austin,Texas,78752,2,$4.17/month PIE members $2/hr Non-Members,Multi-family residential,Multifamily Commercial,Apartment,J1772,240V,J1772,"30.337843, -97.714871",$4.17/month PIE members $2/hr Non-Members,40A
LAS CIMAS4 / LAS CIMAS #1,900 S Capital of Texas Hwy,,West Lake Hills,Texas,78746,2,$4.17/month PIE members $2/hr Non-Members,Commercial with unrestricted access,Workplace,High-Tech,J1772,240V,J1772,"30.28771, -97.829448",$4.17/month PIE members $2/hr Non-Members,40A
PARK PLAZA / STATION1,115 Sandra Muraida Way,,Austin,Texas,78703,2,$4.17/month PIE members $2/hr Non-Members,Commercial with unrestricted access,Retail,Strip Mall,J1772,240V,J1772,"30.268266, -97.755017",$4.17/month PIE members $2/hr Non-Members,40A
GPT / GPT 3,787-799 W 3rd St,,Austin,Texas,78701,2,$4.17/month PIE members $2/hr Non-Members,Commercial with unrestricted access,Multifamily Commercial,Apartment,J1772,240V,J1772,"30.268396, -97.754401",$4.17/month PIE members $2/hr Non-Members,40A
PRESIDIUM / VIOLET,409 E William Cannon Dr,,Austin,Texas,78745,2,$4.17/month PIE members $2/hr Non-Members,Commercial with unrestricted access,Multifamily Commercial,Apartment,J1772,240V,J1772,"30.191582, -97.775626",$4.17/month PIE members $2/hr Non-Members,40A
FOUNDRY / STATION 1,310 Comal St,,Austin,Texas,78702,2,$4.17/month PIE members $2/hr Non-Members,Commercial with unrestricted access,Workplace,General,J1772,240V,J1772,"30.261032, -97.727974",$4.17/month PIE members $2/hr Non-Members,40A
PALOMA RIDGE / PALOMA BDG C #2,13620 Ranch Rd 620 N,,Austin,Texas,78717,2,$4.17/month PIE members $2/hr Non-Members,Commercial with unrestricted access,Workplace,General,J1772,240V,J1772,"30.478106, -97.77793",$4.17/month PIE members $2/hr Non-Members,40A
NATIONAL INSTRU / 11&12;,11500 N Mopac Expy,,Austin,Texas,78759,2,$4.17/month PIE members $2/hr Non-Members,Commercial with unrestricted access,Workplace,High-Tech,J1772,240V,J1772,"30.408722, -97.725271",$4.17/month PIE members $2/hr Non-Members,40A
ST. JOHNS WEST / ST JOHNS NW,601 W St Johns Ave,,Austin,Texas,78752,2,$4.17/month PIE members $2/hr Non-Members,Multi-family residential,Multifamily Commercial,Apartment,J1772,240V,J1772,"30.337818, -97.714804",$4.17/month PIE members $2/hr Non-Members,40A
SAS / STATION 1,12100 samsung blvd,,Austin,Texas,78754,2,$4.17/month PIE members $2/hr Non-Members,Commercial with unrestricted access,Workplace,General,J1772,240V,J1772,"30.377935, -97.639951",$4.17/month PIE members $2/hr Non-Members,40A
PARMER AUSTIN / STATION PIC 3,507 E Howard Ln,,Austin,Texas,78753,2,$4.17/month PIE members $2/hr Non-Members,Commercial with unrestricted access,Workplace,High-Tech,J1772,240V,J1772,"30.41332, -97.654591",$4.17/month PIE members $2/hr Non-Members,40A
PIE AE / PUBCHASEESCAL2,4301 Westbank Dr,,Austin,Texas,78746,1,$4.17/month PIE members $2/hr Non-Members,Commercial with unrestricted access,Parking,Commercial,J1772,--,--,"30.275649, -97.817129",$4.17/month PIE members $2/hr Non-Members,40A
PIE AE / 2201 E 6TH ST,2201 E 6th St,,Austin,Texas,78702,2,$4.17/month PIE members $2/hr Non-Members,Commercial with unrestricted access,Parking,Commercial,NEMA 5-20R,240V,J1772,"30.259958, -97.718567",$4.17/month PIE members $2/hr Non-Members,40A
TR DOMAIN 11 / STATION2,11920 Alterra Pkwy,,Austin,Texas,78758,2,$4.17/month PIE members $2/hr Non-Members,Commercial with restricted access,Workplace,General,J1772,240V,J1772,"30.40522, -97.719541",$4.17/month PIE members $2/hr Non-Members,
PIE AE / ROSEWOOD PARK1,Rosewood Neighborhood Park Pedestrian Walkway,,Austin,Texas,78702,2,$4.17/month PIE members $2/hr Non-Members,Commercial with unrestricted access,Parking,Commercial,J1772,240V,J1772,"30.271704, -97.713959",$4.17/month PIE members $2/hr Non-Members,40A
LEASING OFFICE / STATION 1,8000 US-290,,Austin,Texas,78737,2,$4.17/month PIE members $2/hr Non-Members,Multi-family residential,Multifamily Commercial,Apartment,J1772,240V,J1772,"30.231128, -97.889867",$4.17/month PIE members $2/hr Non-Members,40A
SUSTAINABLEFOOD / SUSTAINABLEFOOD,2921 E 17th St,,Austin,Texas,78702,1,$4.17/month PIE members $2/hr Non-Members,Commercial with unrestricted access,Workplace,General,J1772,--,--,"30.278063, -97.710153",$4.17/month PIE members $2/hr Non-Members,40A
AMD GO GREEN / P100 FL2 RIGHT,7171 Southwest Pkwy,,Austin,Texas,78735,2,$4.17/month PIE members $2/hr Non-Members,Multi-family residential,Multifamily Commercial,Apartment,J1772,240V,J1772,"30.250788, -97.861771",$4.17/month PIE members $2/hr Non-Members,40A
BEXLEYTECHRIDGE / CLUBHOUSE,1200 East Parmer Lane,,Austin,Texas,78753,1,$4.17/month PIE members $2/hr Non-Members,Multi-family residential,Parking,Commercial,J1772,--,--,"30.394787, -97.653242",$4.17/month PIE members $2/hr Non-Members,40A
NORTHPOINTCENTR / NORTHPOINT,6834 Austin Center Blvd,,Austin,Texas,78731,2,$4.17/month PIE members $2/hr Non-Members,Commercial with restricted access,Workplace,General,J1772,240V,J1772,"30.351629, -97.752035",$4.17/month PIE members $2/hr Non-Members,40A
HANOVER / L3,110 San Antonio St,,Austin,Texas,78701,1,$4.17/month PIE members $2/hr Non-Members,Commercial with restricted access,Multifamily Commercial,Apartment,J1772,--,--,"30.265425, -97.749045",$4.17/month PIE members $2/hr Non-Members,40A
PIE AE / ERCOT 3,7620 Metro Center Dr,,Austin,Texas,78744,2,$4.17/month PIE members $2/hr Non-Members,Commercial with unrestricted access,Municipal,Municipal Workplace,J1772,240V,J1772,"30.216443, -97.69223",$4.17/month PIE members $2/hr Non-Members,40A
THE MEDVE GROUP / BARTON HILLS,1244-1298 Barton Hills Dr,,Austin,Texas,78704,2,$4.17/month PIE members $2/hr Non-Members,Multi-family residential,Multifamily Commercial,Apartment,J1772,240V,J1772,"30.261911, -97.773946",$4.17/month PIE members $2/hr Non-Members,40A
PIE AE / SMART CHARGE 1,2016 Centimeter Cir,,Austin,Texas,78758,2,$4.17/month PIE members $2/hr Non-Members,Commercial with unrestricted access,Workplace,General,J1772,240V,J1772,"30.381571, -97.713503",$4.17/month PIE members $2/hr Non-Members,40A
COA FLEET - PIE / ROOF3,700-798 E 9th St,,Austin,Texas,78701,2,$4.17/month PIE members $2/hr Non-Members,"Public (Municipal, as in library, street, etc)",Municipal,Municipal Fleet,NEMA 5-20R,240V,J1772,"30.268894, -97.734703",$4.17/month PIE members $2/hr Non-Members,40A
ACC-AE / NORTHRIDGE1,11928 Stonehollow,,Austin,Texas,78758,2,$4.17/month PIE members $2/hr Non-Members,Commercial with unrestricted access,Parking,Commercial,J1772,240V,J1772,"30.404225, -97.705798",$4.17/month PIE members $2/hr Non-Members,40A
PIE AE / KRAMER 01,2526 Kramer Ln,,Austin,Texas,78758,2,$4.17/month PIE members $2/hr Non-Members,Commercial with unrestricted access,Municipal,Municipal Parking,NEMA 5-20R,240V,J1772,"30.394697, -97.716885",$4.17/month PIE members $2/hr Non-Members,40A
DSMCUT / EVSE04 FLOOR L4,501-573 E 15th St,,Austin,Texas,78701,2,$4.17/month PIE members $2/hr Non-Members,Commercial with unrestricted access,Healthcare,Hospital / Treatment Center,J1772,240V,J1772,"30.275239, -97.734584",$4.17/month PIE members $2/hr Non-Members,40A
PIE AE / CONVENTION CTR3,2nd & Brazos,,Austin,Texas,78701,2,$4.17/month PIE members $2/hr Non-Members,Commercial with unrestricted access,Parking,Commercial,J1772,240V,J1772,"30.263774, -97.743466",$4.17/month PIE members $2/hr Non-Members,40A
GALLERY DOMAIN / GALLERY DOMAIN,11100 Alterra Pkwy,,Austin,Texas,78758,2,$4.17/month PIE members $2/hr Non-Members,Commercial with unrestricted access,Multifamily Commercial,Apartment,J1772,240V,J1772,"30.396207, -97.722102",$4.17/month PIE members $2/hr Non-Members,30A
COA FLEET - PIE / ROOF4,700-798 E 9th St,,Austin,Texas,78701,2,$4.17/month PIE members $2/hr Non-Members,"Public (Municipal, as in library, street, etc)",Municipal,Municipal Fleet,NEMA 5-20R,240V,J1772,"30.268885, -97.734673",$4.17/month PIE members $2/hr Non-Members,40A
NATIONAL INSTRU / 1&2,11500 N Mopac Expy,,Austin,Texas,78759,2,$4.17/month PIE members $2/hr Non-Members,Commercial with unrestricted access,Workplace,High-Tech,J1772,240V,J1772,"30.408792, -97.725312",$4.17/month PIE members $2/hr Non-Members,40A
COA FLEET - PIE / ROOF 1,709 E 10th St,,Austin,Texas,78701,2,$4.17/month PIE members $2/hr Non-Members,Commercial with restricted access,Municipal,Municipal Fleet,J1772,240V,J1772,"30.269205, -97.734184",$4.17/month PIE members $2/hr Non-Members,
DSMCUT / EVSE09 FLOOR LL,1305 Red River St,,Austin,Texas,78701,2,$4.17/month PIE members $2/hr Non-Members,Commercial with unrestricted access,Healthcare,Hospital / Treatment Center,J1772,240V,J1772,"30.275215, -97.734598",$4.17/month PIE members $2/hr Non-Members,40A
FLATIRON DOMAIN / FLATIRON DOM 2,10727 domain dr,,Austin,Texas,78758,2,$4.17/month PIE members $2/hr Non-Members,Multi-family residential,Multifamily Commercial,Apartment,J1772,240V,J1772,"30.392852, -97.723729",$4.17/month PIE members $2/hr Non-Members,40A
DOMAIN / STATION 1,11601 Alterra Parkway,,Austin,Texas,78758,2,$4.17/month PIE members $2/hr Non-Members,Commercial with restricted access,Workplace,General,J1772,240V,J1772,"30.40227, -97.718828",$4.17/month PIE members $2/hr Non-Members,40A
PIE AE / PUBACCSOAUSTIN2,5517 Manchaca Rd,,Austin,Texas,78745,2,$4.17/month PIE members $2/hr Non-Members,Commercial with unrestricted access,Parking,Commercial,J1772,240V,J1772,"30.216052, -97.796295",$4.17/month PIE members $2/hr Non-Members,40A
PIE AE / PUBDENNYSNORTH2,1601 Interstate 35 Frontage Road,,Austin,Texas,78702,2,$4.17/month PIE members $2/hr Non-Members,Commercial with unrestricted access,Parking,Commercial,J1772,240V,J1772,"30.276571, -97.729718",$4.17/month PIE members $2/hr Non-Members,40A
PIE AE / PUBPEARSON CTR1,905 W Howard Ln,,Austin,Texas,78753,2,$4.17/month PIE members $2/hr Non-Members,Commercial with unrestricted access,Parking,Commercial,J1772,240V,J1772,"30.416583, -97.666048",$4.17/month PIE members $2/hr Non-Members,40A
HYATT PLACE / HP STATION 1,Presidential Blvd,,Austin,Texas,78719,2,$4.17/month PIE members $2/hr Non-Members,Commercial with unrestricted access,Hospitality,Hotel / Resort,J1772,240V,J1772,"30.210412, -97.664797",$4.17/month PIE members $2/hr Non-Members,40A
ROSCOE PROPERTI / MESH MAIN,2100-2134 Elmont Dr,,Austin,Texas,78741,2,$4.17/month PIE members $2/hr Non-Members,Multi-family residential,Multifamily Commercial,Apartment,J1772,240V,J1772,"30.240977, -97.726259",$4.17/month PIE members $2/hr Non-Members,40A
PIE AE / RUTHERFORDCAMP3,8301 Cameron Rd,,Austin,Texas,78754,2,$4.17/month PIE members $2/hr Non-Members,Commercial with unrestricted access,Parking,Commercial,J1772,240V,J1772,"30.337065, -97.680709",$4.17/month PIE members $2/hr Non-Members,40A
ENDEAVOR REG / STATION 2,11001 Lakeline Blvd,,Austin,Texas,78717,2,$4.17/month PIE members $2/hr Non-Members,Commercial with unrestricted access,Workplace,General,J1772,240V,J1772,"30.47969, -97.793323",$4.17/month PIE members $2/hr Non-Members,40A
HPI 3700 / 3900 SC 3,3900 N Capital of Texas Hwy,,Austin,Texas,78746,2,$4.17/month PIE members $2/hr Non-Members,Commercial with unrestricted access,Workplace,General,J1772,240V,J1772,"30.337931, -97.807977",$4.17/month PIE members $2/hr Non-Members,40A
HANOVER / L4,110 San Antonio St,,Austin,Texas,78701,1,$4.17/month PIE members $2/hr Non-Members,Commercial with restricted access,Multifamily Commercial,Apartment,J1772,--,--,"30.265222, -97.749115",$4.17/month PIE members $2/hr Non-Members,40A
AISD PAC / AISD PAC #2,1301-1603 E 51st St,,Austin,Texas,78723,2,$4.17/month PIE members $2/hr Non-Members,Commercial with unrestricted access,Education,High School / Other,J1772,240V,J1772,"30.30538, -97.702537",$4.17/month PIE members $2/hr Non-Members,40A
ST. ED'S / GARAGE STATION1,578-680 Woodward St,,Austin,Texas,78704,2,$4.17/month PIE members $2/hr Non-Members,Commercial with unrestricted access,Education,University / College,J1772,240V,J1772,"30.226907, -97.751966",$4.17/month PIE members $2/hr Non-Members,40A
GPT / GABLES 1,898-900 W 3rd St,,Austin,Texas,78701,2,$4.17/month PIE members $2/hr Non-Members,Commercial with unrestricted access,Multifamily Commercial,Apartment,J1772,240V,J1772,"30.268637, -97.754851",$4.17/month PIE members $2/hr Non-Members,40A
PIE AE / PUBHILL.CGAL2,12701 Hill Country Blvd,,Bee Cave,Texas,78738,2,$4.17/month PIE members $2/hr Non-Members,Commercial with unrestricted access,Workplace,General,J1772,240V,J1772,"30.307769, -97.93863",$4.17/month PIE members $2/hr Non-Members,40A
COA FLEET - PIE / BARTON #3,505 Barton Springs Rd,,Austin,Texas,78704,2,$4.17/month PIE members $2/hr Non-Members,Commercial with restricted access,Municipal,Municipal Parking,J1772,240V,J1772,"30.2569, -97.749301",$4.17/month PIE members $2/hr Non-Members,
PARMER AUSTIN / PIC #1,13011c McCallen Pass,,Austin,Texas,78753,2,$4.17/month PIE members $2/hr Non-Members,Commercial with unrestricted access,Workplace,High-Tech,J1772,240V,J1772,"30.411029, -97.658122",$4.17/month PIE members $2/hr Non-Members,40A
BRANDYWINE AUST / FOUR POINTS 01,11305 4 Points Dr,,Austin,Texas,78726,2,$4.17/month PIE members $2/hr Non-Members,Commercial with unrestricted access,Workplace,General,J1772,240V,J1772,"30.404059, -97.850068",$4.17/month PIE members $2/hr Non-Members,40A
IXIA-AUSTIN1 / IXIA AUSTIN,8310 N Capital of Texas Hwy,,Austin,Texas,78731,2,$4.17/month PIE members $2/hr Non-Members,Commercial with unrestricted access,Workplace,General,J1772,240V,J1772,"30.386814, -97.768734",$4.17/month PIE members $2/hr Non-Members,40A
NATIONAL INSTRU / 21&22;,11500 N Mopac Expy,,Austin,Texas,78759,2,$4.17/month PIE members $2/hr Non-Members,Commercial with unrestricted access,Workplace,High-Tech,J1772,240V,J1772,"30.408382, -97.726244",$4.17/month PIE members $2/hr Non-Members,40A
PIE AE / MILWOOD LIB 1,12500 Amherst Dr,,Austin,Texas,78727,2,$4.17/month PIE members $2/hr Non-Members,Commercial with unrestricted access,Parking,Commercial,J1772,240V,J1772,"30.422307, -97.716492",$4.17/month PIE members $2/hr Non-Members,40A
PIE AE / VILLATGRACYFARM,2600 Gracy Farms Ln,,Austin,Texas,78758,2,$4.17/month PIE members $2/hr Non-Members,Commercial with unrestricted access,Parking,Airport,J1772,240V,J1772,"30.405175, -97.711583",$4.17/month PIE members $2/hr Non-Members,40A
PIE AE / PALMER STATION5,736-820 Barton Springs Rd,,Austin,Texas,78704,2,$4.17/month PIE members $2/hr Non-Members,Commercial with unrestricted access,Parking,Commercial,J1772,240V,J1772,"30.259705, -97.752496",$4.17/month PIE members $2/hr Non-Members,40A
PIE AE / PUB CAMP MABRY2,Camp Mabry 1 Mile Track,,Austin,Texas,78703,2,$4.17/month PIE members $2/hr Non-Members,"Public (Municipal, as in library, street, etc)",Parking,Commercial,NEMA 5-20R,240V,J1772,"30.31659, -97.757581",$4.17/month PIE members $2/hr Non-Members,40A
PIE AE / WALNUTCREEKPRK2,12138 N Lamar Blvd,,Austin,Texas,78753,2,$4.17/month PIE members $2/hr Non-Members,Commercial with unrestricted access,Parking,Commercial,J1772,240V,J1772,"30.399123, -97.679489",$4.17/month PIE members $2/hr Non-Members,40A
PIE AE / OTC 3FL PKGSTA2,505 BARTON springs rd.,,Austin,Texas,78704,2,$4.17/month PIE members $2/hr Non-Members,Commercial with unrestricted access,Parking,Commercial,J1772,240V,J1772,"30.256863, -97.748959",$4.17/month PIE members $2/hr Non-Members,40A
AISD PAC / AISD PAC #5,1301-1603 E 51st St,,Austin,Texas,78723,2,$4.17/month PIE members $2/hr Non-Members,Commercial with unrestricted access,Education,High School / Other,J1772,240V,J1772,"30.305204, -97.702108",$4.17/month PIE members $2/hr Non-Members,40A
PIE AE / PUBAMLI1,W 3rd St,,Austin,Texas,78701,2,$4.17/month PIE members $2/hr Non-Members,Commercial with unrestricted access,Parking,Commercial,J1772,240V,J1772,"30.266182, -97.748168",$4.17/month PIE members $2/hr Non-Members,40A
PIE AE / ZILKERPARKPOLO1,2225 Andrew Zilker Rd,,Austin,Texas,78746,2,$4.17/month PIE members $2/hr Non-Members,"Public (Municipal, as in library, street, etc)",Parks and Recreation,,J1772,240V,J1772,"30.266471, -97.774765",$4.17/month PIE members $2/hr Non-Members,40A
WEINSTEIN / WHITESTONE 1,13945 Research Blvd,,Austin,Texas,78729,2,$4.17/month PIE members $2/hr Non-Members,Commercial with unrestricted access,Multifamily Commercial,Apartment,J1772,240V,J1772,"30.471863, -97.796031",$4.17/month PIE members $2/hr Non-Members,40A
CIELO CENTER / STATION 1,1250 S Capital of Texas Hwy,,Austin,Texas,78746,2,$4.17/month PIE members $2/hr Non-Members,Commercial with restricted access,Workplace,General,J1772,240V,J1772,"30.280344, -97.823529",$4.17/month PIE members $2/hr Non-Members,40A
ENDEAVOR REG / STATION1,11001 Lakeline Blvd,,Austin,Texas,78717,2,$4.17/month PIE members $2/hr Non-Members,Commercial with unrestricted access,Workplace,General,J1772,240V,J1772,"30.479716, -97.793285",$4.17/month PIE members $2/hr Non-Members,40A
PIE AE / PUB-CENTRALMKTN,4001-4099 N Lamar Blvd,,Austin,Texas,78756,2,$4.17/month PIE members $2/hr Non-Members,Commercial with unrestricted access,Parking,Commercial,J1772,240V,J1772,"30.308484, -97.740767",$4.17/month PIE members $2/hr Non-Members,40A
AMD GO GREEN / P100 FL2 LEFT,7171 Southwest Pkwy,,Austin,Texas,78735,2,$4.17/month PIE members $2/hr Non-Members,Commercial with unrestricted access,Multifamily Commercial,Apartment,J1772,240V,J1772,"30.250807, -97.861781",$4.17/month PIE members $2/hr Non-Members,40A
PIE AE / OTC 3FL PKGSTA1,505 BARTON springs rd.,,Austin,Texas,78704,2,$4.17/month PIE members $2/hr Non-Members,Commercial with unrestricted access,Parking,Commercial,J1772,240V,J1772,"30.256815, -97.748988",$4.17/month PIE members $2/hr Non-Members,40A
PALOMA RIDGE / PALOMA1,13620 Ranch Rd 620,,Austin,Texas,78717,2,$4.17/month PIE members $2/hr Non-Members,Commercial with unrestricted access,Workplace,General,J1772,240V,J1772,"30.476801, -97.778643",$4.17/month PIE members $2/hr Non-Members,40A
GOODHEALTH / STATION 1,7800 Metropolis Dr,,Austin,Texas,78744,2,$4.17/month PIE members $2/hr Non-Members,Commercial with unrestricted access,Healthcare,Hospital / Treatment Center,J1772,240V,J1772,"30.206445, -97.693581",$4.17/month PIE members $2/hr Non-Members,40A
ENDEAVOR REG / 901 E 6TH ST 1,901 E 6th St,,Austin,Texas,78702,2,$4.17/month PIE members $2/hr Non-Members,Commercial with restricted access,Workplace,General,J1772,240V,J1772,"30.265044, -97.733591",$4.17/month PIE members $2/hr Non-Members,40A
NATIONAL INSTRU / 3&4,11500 N Mopac Expy,,Austin,Texas,78759,2,$4.17/month PIE members $2/hr Non-Members,Commercial with unrestricted access,Workplace,High-Tech,J1772,240V,J1772,"30.408744, -97.725343",$4.17/month PIE members $2/hr Non-Members,40A
PIE AE / PUBGABLESPRESS2,507 Pressler St,,Austin,Texas,78703,2,$4.17/month PIE members $2/hr Non-Members,Commercial with unrestricted access,Parking,Commercial,J1772,240V,J1772,"30.273037, -97.759986",$4.17/month PIE members $2/hr Non-Members,40A
WEINSTEIN / 3 FIVE,8003 S IH 35 Frontage Rd,,Austin,Texas,78744,2,$4.17/month PIE members $2/hr Non-Members,Commercial with unrestricted access,Multifamily Commercial,Apartment,J1772,240V,J1772,"30.172599, -97.777067",$4.17/month PIE members $2/hr Non-Members,40A
COA FLEET - PIE / RUTHERFORD #3,1520 Rutherford Ln,,Austin,Texas,78754,2,$4.17/month PIE members $2/hr Non-Members,Commercial with restricted access,Parking,Commercial,J1772,240V,J1772,"30.337732, -97.680766",$4.17/month PIE members $2/hr Non-Members,40A
DSMCUT / EVSE08 G LEVEL,1305 Red River St,,Austin,Texas,78701,2,$4.17/month PIE members $2/hr Non-Members,Commercial with unrestricted access,Healthcare,Hospital / Treatment Center,J1772,240V,J1772,"30.275195, -97.734584",$4.17/month PIE members $2/hr Non-Members,40A
